{"type":"FeatureCollection","features":[{"type":"Feature","geometry":{"type":"Polygon","coordinates":[[[-84.66312,33.84067],[-84.66308,33.83941],[-84.65779,33.83945],[-84.65779,33.83882],[-84.65467,33.83882],[-84.65469,33.83336],[-84.65127,33.83334],[-84.65127,33.83224],[-84.65352,33.83267],[-84.6535,33.83209],[-84.65466,33.83269],[-84.65525,33.83237],[-84.65473,33.8319],[-84.65459,33.83065],[-84.6559,33.8303],[-84.65539,33.82901],[-84.6558,33.82746],[-84.65319,33.82762],[-84.65262,33.82714],[-84.65055,33.82771],[-84.65056,33.82862],[-84.65188,33.82887],[-84.65214,33.82845],[-84.65274,33.83006],[-84.65048,33.82987],[-84.64927,33.83024],[-84.6486,33.83165],[-84.64672,33.83145],[-84.64677,33.83045],[-84.64823,33.82986],[-84.64652,33.82745],[-84.64661,33.82845],[-84.64623,33.82845],[-84.64658,33.82887],[-84.64581,33.82887],[-84.64585,33.82794],[-84.64652,33.82788],[-84.64496,33.82567],[-84.64449,33.82567],[-84.64449,33.82626],[-84.64155,33.82624],[-84.64136,33.82979],[-84.63713,33.8297],[-84.63718,33.8313],[-84.63398,33.82745],[-84.63102,33.82261],[-84.62946,33.82242],[-84.62781,33.82386],[-84.62624,33.82425],[-84.62427,33.82091],[-84.62243,33.81924],[-84.62233,33.81563],[-84.62567,33.81477],[-84.62635,33.81534],[-84.62972,33.81466],[-84.63607,33.81452],[-84.64489,33.81744],[-84.64708,33.81753],[-84.66,33.82261],[-84.65997,33.82137],[-84.66208,33.82083],[-84.66408,33.81934],[-84.66625,33.81932],[-84.66621,33.82069],[-84.66746,33.8207],[-84.66798,33.82116],[-84.66969,33.82102],[-84.66972,33.81941],[-84.67181,33.81945],[-84.67248,33.82131],[-84.67191,33.82151],[-84.67229,33.82206],[-84.67117,33.82287],[-84.66792,33.82282],[-84.66791,33.82638],[-84.67225,33.82644],[-84.6723,33.82854],[-84.67667,33.82846],[-84.67679,33.8314],[-84.68116,33.83075],[-84.68114,33.83501],[-84.68022,33.83507],[-84.67989,33.83411],[-84.67923,33.83415],[-84.67925,33.83482],[-84.68054,33.83548],[-84.68114,33.8365],[-84.67523,33.83193],[-84.67228,33.83067],[-84.67209,33.83364],[-84.66968,33.83361],[-84.67126,33.83721],[-84.66293,33.83709],[-84.66291,33.83878],[-84.66406,33.83878],[-84.66408,33.83767],[-84.66556,33.83766],[-84.66564,33.83832],[-84.66779,33.83823],[-84.66778,33.84064],[-84.66312,33.84067]],[[-84.64485,33.82307],[-84.64347,33.82178],[-84.64397,33.82075],[-84.64277,33.82082],[-84.64418,33.82388],[-84.64536,33.82376],[-84.64485,33.82307]],[[-84.64073,33.82311],[-84.64275,33.82233],[-84.64254,33.82144],[-84.64015,33.82213],[-84.64073,33.82311]]]},"properties":{"ward":3}},{"type":"Feature","geometry":{"type":"Polygon","coordinates":[[[-84.61833,33.81531],[-84.61935,33.81527],[-84.61943,33.81491],[-84.61864,33.81483],[-84.61884,33.81423],[-84.61958,33.81424],[-84.61974,33.81349],[-84.61906,33.81349],[-84.61927,33.81274],[-84.62383,33.81278],[-84.62417,33.81209],[-84.61944,33.81202],[-84.61964,33.81099],[-84.62147,33.81108],[-84.62146,33.80988],[-84.6198,33.80967],[-84.62028,33.80148],[-84.62138,33.8012],[-84.62286,33.80424],[-84.62527,33.80476],[-84.62415,33.80492],[-84.62408,33.80846],[-84.62429,33.80927],[-84.62513,33.8093],[-84.62662,33.80763],[-84.62731,33.80733],[-84.62851,33.80778],[-84.62893,33.80678],[-84.63012,33.80715],[-84.63038,33.806],[-84.63178,33.80586],[-84.63218,33.80505],[-84.63123,33.80483],[-84.63126,33.80436],[-84.63559,33.80486],[-84.63471,33.80434],[-84.63565,33.80367],[-84.63516,33.80228],[-84.63393,33.80264],[-84.63325,33.80104],[-84.63721,33.80106],[-84.63737,33.79647],[-84.63886,33.79694],[-84.63749,33.79813],[-84.63876,33.79852],[-84.63957,33.79952],[-84.6409,33.79953],[-84.64045,33.79918],[-84.64083,33.79864],[-84.64163,33.79911],[-84.64033,33.80083],[-84.64162,33.80118],[-84.64163,33.80358],[-84.64291,33.80361],[-84.64289,33.8049],[-84.64156,33.80489],[-84.64151,33.80633],[-84.64358,33.80636],[-84.64363,33.80502],[-84.64444,33.80505],[-84.64443,33.80547],[-84.64642,33.8055],[-84.64646,33.80509],[-84.64599,33.80509],[-84.64597,33.80316],[-84.64878,33.80353],[-84.64885,33.8028],[-84.6496,33.80281],[-84.65023,33.80292],[-84.65027,33.8041],[-84.64863,33.80402],[-84.64866,33.80516],[-84.65208,33.80516],[-84.65234,33.80573],[-84.64839,33.80822],[-84.64896,33.80806],[-84.64936,33.80869],[-84.65209,33.8089],[-84.65363,33.80779],[-84.65524,33.80732],[-84.6554,33.80569],[-84.65679,33.80571],[-84.65693,33.80515],[-84.65973,33.8052],[-84.66014,33.80678],[-84.65971,33.8068],[-84.65962,33.80966],[-84.66054,33.81225],[-84.65822,33.81222],[-84.65534,33.80937],[-84.65458,33.80769],[-84.64811,33.81065],[-84.64093,33.81088],[-84.63891,33.81157],[-84.63973,33.81304],[-84.64131,33.81306],[-84.64133,33.81442],[-84.64376,33.81497],[-84.64459,33.81648],[-84.64693,33.81771],[-84.63488,33.81433],[-84.62875,33.81474],[-84.62635,33.81534],[-84.62567,33.81477],[-84.61785,33.81667],[-84.61833,33.81531]],[[-84.64511,33.81742],[-84.64465,33.81693],[-84.64466,33.8173],[-84.64511,33.81742]],[[-84.64435,33.81676],[-84.6432,33.81637],[-84.64434,33.81719],[-84.64435,33.81676]],[[-84.64145,33.80867],[-84.64159,33.80977],[-84.64254,33.80902],[-84.64238,33.80822],[-84.64145,33.8082],[-84.64145,33.80867]],[[-84.65738,33.80712],[-84.65518,33.8075],[-84.65507,33.80875],[-84.6572,33.80873],[-84.65738,33.80712]],[[-84.65965,33.81154],[-84.65879,33.81065],[-84.65663,33.8105],[-84.65766,33.81151],[-84.65965,33.81154]],[[-84.64241,33.80768],[-84.64148,33.80766],[-84.64148,33.80793],[-84.64241,33.80768]],[[-84.64297,33.80703],[-84.64151,33.80674],[-84.6415,33.80738],[-84.64296,33.80738],[-84.64297,33.80703]],[[-84.63221,33.80562],[-84.63211,33.80587],[-84.63277,33.80588],[-84.63221,33.80562]],[[-84.62255,33.81474],[-84.62166,33.81469],[-84.62127,33.81561],[-84.62229,33.81532],[-84.62255,33.81474]],[[-84.6189,33.81555],[-84.61831,33.8158],[-84.61887,33.81579],[-84.6189,33.81555]]]},"properties":{"ward":1}},{"type":"Feature","geometry":{"type":"Polygon","coordinates":[[[-84.63567,33.83653],[-84.6353,33.83728],[-84.6335,33.83676],[-84.63352,33.83618],[-84.63282,33.83598],[-84.63284,33.83412],[-84.63055,33.83269],[-84.63045,33.83116],[-84.6293,33.83001],[-84.62449,33.83163],[-84.62483,33.83353],[-84.6236,33.83335],[-84.62371,33.83386],[-84.6221,33.83403],[-84.6219,33.8328],[-84.62266,33.83245],[-84.62251,33.83166],[-84.62329,33.83147],[-84.62283,33.82838],[-84.62456,33.82819],[-84.62416,33.82959],[-84.62515,33.82949],[-84.62493,33.82791],[-84.62391,33.82798],[-84.62342,33.82753],[-84.62383,33.82701],[-84.62298,33.82682],[-84.62301,33.82629],[-84.62401,33.82653],[-84.62407,33.82438],[-84.61726,33.82702],[-84.61754,33.82752],[-84.61822,33.82739],[-84.617,33.82848],[-84.61699,33.82967],[-84.61633,33.82963],[-84.61633,33.82902],[-84.61485,33.82866],[-84.61497,33.82788],[-84.61384,33.8281],[-84.61382,33.82741],[-84.61454,33.82732],[-84.6163,33.82378],[-84.61469,33.82379],[-84.61473,33.82339],[-84.61644,33.8234],[-84.61716,33.82165],[-84.61557,33.82111],[-84.61559,33.81956],[-84.61781,33.81963],[-84.61762,33.81695],[-84.61507,33.81751],[-84.61458,33.81828],[-84.61518,33.81876],[-84.61173,33.82148],[-84.6113,33.82164],[-84.6113,33.82088],[-84.60744,33.82108],[-84.60708,33.8201],[-84.60917,33.82012],[-84.60917,33.8207],[-84.6113,33.82044],[-84.61129,33.81992],[-84.60994,33.8199],[-84.61009,33.8175],[-84.60912,33.8176],[-84.6091,33.81913],[-84.60711,33.81908],[-84.6073,33.81867],[-84.60837,33.81865],[-84.60836,33.81768],[-84.6079,33.81772],[-84.60789,33.81832],[-84.60732,33.8183],[-84.60633,33.81751],[-84.60579,33.81904],[-84.60465,33.81904],[-84.6058,33.81709],[-84.60624,33.81725],[-84.60621,33.81648],[-84.60672,33.81664],[-84.60674,33.81739],[-84.6071,33.81746],[-84.60708,33.81691],[-84.60809,33.81692],[-84.60805,33.81749],[-84.60987,33.8173],[-84.60992,33.81614],[-84.61082,33.81554],[-84.61081,33.81233],[-84.60881,33.81247],[-84.60898,33.81188],[-84.61503,33.81192],[-84.61495,33.81235],[-84.6159,33.8125],[-84.61576,33.81382],[-84.61471,33.81367],[-84.61433,33.81559],[-84.61692,33.81567],[-84.61628,33.81697],[-84.61767,33.81658],[-84.61833,33.81531],[-84.61785,33.81667],[-84.62233,33.81563],[-84.62243,33.81924],[-84.62427,33.82091],[-84.62628,33.82429],[-84.62847,33.82348],[-84.62946,33.82242],[-84.63106,33.82265],[-84.63398,33.82745],[-84.63718,33.8313],[-84.63721,33.83255],[-84.63563,33.83252],[-84.63551,33.83424],[-84.63745,33.83448],[-84.63734,33.83701],[-84.63692,33.83702],[-84.63671,33.83768],[-84.63561,33.83737],[-84.63567,33.83653]],[[-84.61979,33.82442],[-84.61983,33.82269],[-84.61767,33.82259],[-84.61729,33.82363],[-84.61785,33.82399],[-84.61769,33.82445],[-84.61745,33.82498],[-84.61615,33.82499],[-84.61552,33.82626],[-84.61551,33.82754],[-84.61604,33.82734],[-84.6162,33.82581],[-84.6164,33.82721],[-84.62348,33.82446],[-84.61979,33.82442]],[[-84.61598,33.82752],[-84.61551,33.82769],[-84.6155,33.8285],[-84.61614,33.82829],[-84.61598,33.82752]],[[-84.61931,33.82206],[-84.61868,33.82186],[-84.61853,33.82244],[-84.61953,33.82252],[-84.61931,33.82206]],[[-84.61843,33.81969],[-84.618,33.82058],[-84.6189,33.81984],[-84.61843,33.81969]],[[-84.6177,33.8203],[-84.61709,33.8204],[-84.61764,33.82054],[-84.6177,33.8203]],[[-84.61905,33.81815],[-84.61825,33.81811],[-84.61817,33.81871],[-84.61897,33.81875],[-84.61905,33.81815]],[[-84.62263,33.83335],[-84.62296,33.83281],[-84.62223,33.8328],[-84.62224,33.83334],[-84.62263,33.83335]]]},"properties":{"ward":2}},{"type":"Feature","geometry":{"type":"Polygon","coordinates":[[[-84.65818,33.82162],[-84.64467,33.81653],[-84.64423,33.81529],[-84.64136,33.81445],[-84.64131,33.81306],[-84.63973,33.81304],[-84.63891,33.81157],[-84.64093,33.81088],[-84.64811,33.81065],[-84.65458,33.80769],[-84.65534,33.80937],[-84.65822,33.81222],[-84.66054,33.81225],[-84.65963,33.80971],[-84.65971,33.8068],[-84.66014,33.80678],[-84.65973,33.8052],[-84.66032,33.80521],[-84.66064,33.80683],[-84.66606,33.80659],[-84.66774,33.80515],[-84.66772,33.8059],[-84.66688,33.80613],[-84.6665,33.80695],[-84.66867,33.80885],[-84.66974,33.80902],[-84.66978,33.80772],[-84.67202,33.8075],[-84.67208,33.80849],[-84.67162,33.80841],[-84.67155,33.80901],[-84.67229,33.80902],[-84.6728,33.80983],[-84.67276,33.8121],[-84.67263,33.81266],[-84.66762,33.8125],[-84.66759,33.8133],[-84.66678,33.81365],[-84.67161,33.81361],[-84.6718,33.81513],[-84.66985,33.8147],[-84.66787,33.81514],[-84.66795,33.81923],[-84.66761,33.81864],[-84.66692,33.81863],[-84.66695,33.81749],[-84.66522,33.81746],[-84.66558,33.81686],[-84.66504,33.81662],[-84.66517,33.81603],[-84.66106,33.81575],[-84.6607,33.81621],[-84.65938,33.81605],[-84.65937,33.81547],[-84.65868,33.81547],[-84.65875,33.81661],[-84.6596,33.81661],[-84.65877,33.81686],[-84.65873,33.81835],[-84.66368,33.81952],[-84.66221,33.82076],[-84.65997,33.82137],[-84.66,33.82261],[-84.65818,33.82162]],[[-84.64682,33.8166],[-84.64781,33.81633],[-84.64852,33.81529],[-84.64994,33.81527],[-84.64997,33.81233],[-84.64785,33.81265],[-84.64845,33.81298],[-84.64834,33.81377],[-84.64698,33.81406],[-84.64777,33.81405],[-84.64786,33.8154],[-84.64731,33.81596],[-84.64688,33.81595],[-84.64718,33.8154],[-84.64591,33.81541],[-84.64592,33.81595],[-84.64552,33.81594],[-84.64682,33.8166]],[[-84.65434,33.8124],[-84.65497,33.81242],[-84.65503,33.81203],[-84.65443,33.80938],[-84.65434,33.8124]],[[-84.64928,33.81077],[-84.64928,33.81019],[-84.64898,33.81034],[-84.64928,33.81077]],[[-84.65564,33.81067],[-84.65656,33.81063],[-84.65538,33.80954],[-84.65564,33.81067]],[[-84.65309,33.80928],[-84.65438,33.80927],[-84.65369,33.80825],[-84.65258,33.80881],[-84.65309,33.80928]]]},"properties":{"ward":4}}]}