{"type":"FeatureCollection","features":[{"type":"Feature","properties":{"district":1},"geometry":{"type":"Polygon","coordinates":[[[-84.55597,33.93612],[-84.57192,33.92617],[-84.58406,33.91757],[-84.59047,33.91488],[-84.59859,33.90985],[-84.60398,33.90529],[-84.6202,33.9024],[-84.62727,33.89993],[-84.64483,33.89673],[-84.64799,33.89657],[-84.65347,33.89754],[-84.66034,33.9003],[-84.66703,33.90223],[-84.69533,33.90293],[-84.7071,33.90248],[-84.70982,33.90322],[-84.72423,33.9036],[-84.72298,33.94754],[-84.73684,33.94791],[-84.73964,33.94761],[-84.73894,34.02988],[-84.73784,34.07941],[-84.65205,34.07823],[-84.62493,34.07741],[-84.62429,34.07747],[-84.62422,34.08179],[-84.61543,34.08167],[-84.61556,34.07737],[-84.58853,34.07661],[-84.58709,34.07409],[-84.58679,34.0706],[-84.58869,34.06716],[-84.5928,34.06151],[-84.59253,34.05915],[-84.59352,34.05425],[-84.58608,34.04915],[-84.58657,34.04907],[-84.58233,34.04503],[-84.57985,34.04171],[-84.57586,34.02879],[-84.57179,34.02241],[-84.56882,34.01135],[-84.56566,34.00591],[-84.56846,34.00391],[-84.57044,34.00339],[-84.57599,34.00345],[-84.57718,34.00426],[-84.58168,34.00167],[-84.58069,34.00001],[-84.58116,33.99762],[-84.58081,33.99653],[-84.58109,33.99441],[-84.58467,33.99172],[-84.5856,33.98921],[-84.58442,33.98632],[-84.57194,33.98319],[-84.56975,33.98125],[-84.56882,33.9785],[-84.56046,33.96532],[-84.55634,33.96273],[-84.55162,33.95741],[-84.55245,33.95541],[-84.55176,33.95098],[-84.55027,33.94779],[-84.55039,33.94634],[-84.55175,33.9432],[-84.55256,33.93972],[-84.55597,33.93612]]]}},{"type":"Feature","properties":{"district":2},"geometry":{"type":"Polygon","coordinates":[[[-84.55595,33.93601],[-84.55256,33.93972],[-84.55175,33.9432],[-84.55039,33.94634],[-84.55027,33.94779],[-84.55176,33.95098],[-84.55245,33.95541],[-84.55162,33.95741],[-84.55634,33.96273],[-84.56046,33.96532],[-84.56882,33.9785],[-84.56975,33.98125],[-84.57194,33.98319],[-84.58442,33.98632],[-84.5856,33.98921],[-84.58467,33.99172],[-84.58109,33.99441],[-84.58081,33.99653],[-84.58116,33.99762],[-84.58069,34.00001],[-84.58168,34.00167],[-84.57718,34.00426],[-84.57599,34.00345],[-84.57044,34.00339],[-84.56846,34.00391],[-84.56566,34.00591],[-84.56882,34.01135],[-84.57179,34.02241],[-84.57586,34.02879],[-84.57955,34.04111],[-84.5814,34.04401],[-84.58657,34.04907],[-84.58169,34.0501],[-84.57492,34.05325],[-84.5702,34.05081],[-84.56754,34.04864],[-84.56248,34.04789],[-84.56336,34.04611],[-84.56373,34.04377],[-84.5627,34.03779],[-84.55635,34.0364],[-84.55239,34.03432],[-84.55023,34.03402],[-84.54952,34.02622],[-84.5478,34.022],[-84.54836,34.01926],[-84.54841,34.01383],[-84.54107,34.0139],[-84.53904,34.01459],[-84.53737,34.01579],[-84.53674,34.01412],[-84.53687,34.01299],[-84.53781,34.01231],[-84.53791,34.00899],[-84.53606,34.00668],[-84.53494,34.00355],[-84.53223,34.0025],[-84.52476,34.00227],[-84.52388,34.00004],[-84.5238,33.99796],[-84.52438,33.99636],[-84.52571,33.99488],[-84.51163,33.99449],[-84.50995,33.99475],[-84.50779,33.99582],[-84.50793,33.98766],[-84.51294,33.98514],[-84.50713,33.98355],[-84.50396,33.98336],[-84.50381,33.97211],[-84.50012,33.97328],[-84.49957,33.97529],[-84.49857,33.97619],[-84.49613,33.97646],[-84.48929,33.97303],[-84.48732,33.97159],[-84.49282,33.96434],[-84.49707,33.96036],[-84.4964,33.95806],[-84.49882,33.94875],[-84.49888,33.94577],[-84.48748,33.93628],[-84.48246,33.93532],[-84.48062,33.93333],[-84.47435,33.93017],[-84.46982,33.92528],[-84.46813,33.92261],[-84.46545,33.91445],[-84.46525,33.90974],[-84.46453,33.90619],[-84.46373,33.90523],[-84.45753,33.9027],[-84.4513,33.90224],[-84.44704,33.89983],[-84.44283,33.90171],[-84.44175,33.90022],[-84.44182,33.89898],[-84.44373,33.89519],[-84.44339,33.8936],[-84.44177,33.89155],[-84.44141,33.89034],[-84.44185,33.88925],[-84.4442,33.88742],[-84.44263,33.88381],[-84.44312,33.88247],[-84.44284,33.88015],[-84.44323,33.87871],[-84.44434,33.87654],[-84.44972,33.87295],[-84.45487,33.86667],[-84.45593,33.86471],[-84.45585,33.86334],[-84.45423,33.86101],[-84.45423,33.85891],[-84.45983,33.85321],[-84.46013,33.85181],[-84.45854,33.84861],[-84.459,33.84561],[-84.4605,33.84112],[-84.46033,33.83895],[-84.45514,33.82881],[-84.45583,33.82581],[-84.45763,33.82451],[-84.46313,33.82711],[-84.46843,33.82741],[-84.47133,33.82591],[-84.47803,33.81981],[-84.48014,33.81733],[-84.48757,33.82346],[-84.49061,33.82608],[-84.49189,33.82794],[-84.49378,33.83661],[-84.49479,33.83865],[-84.50595,33.84773],[-84.53015,33.87307],[-84.53865,33.89451],[-84.57466,33.89513],[-84.57908,33.89626],[-84.58324,33.89518],[-84.59032,33.89623],[-84.59814,33.89949],[-84.59924,33.90084],[-84.59946,33.90304],[-84.6,33.90399],[-84.60398,33.90529],[-84.59859,33.90985],[-84.59047,33.91488],[-84.58406,33.91757],[-84.57192,33.92617],[-84.55595,33.93601]]]}},{"type":"Feature","properties":{"district":3},"geometry":{"type":"Polygon","coordinates":[[[-84.50771,33.98855],[-84.50779,33.99582],[-84.50995,33.99475],[-84.51163,33.99449],[-84.52571,33.99488],[-84.52438,33.99636],[-84.5238,33.99796],[-84.52388,34.00004],[-84.52476,34.00227],[-84.53223,34.0025],[-84.53494,34.00355],[-84.53606,34.00668],[-84.53791,34.00899],[-84.53781,34.01231],[-84.53687,34.01299],[-84.53674,34.01412],[-84.53737,34.01579],[-84.53904,34.01459],[-84.54107,34.0139],[-84.54841,34.01383],[-84.54836,34.01926],[-84.5478,34.022],[-84.54952,34.02622],[-84.55023,34.03402],[-84.55239,34.03432],[-84.55635,34.0364],[-84.5627,34.03779],[-84.56373,34.04377],[-84.56336,34.04611],[-84.56248,34.04789],[-84.56754,34.04864],[-84.5702,34.05081],[-84.57492,34.05325],[-84.58169,34.0501],[-84.58608,34.04915],[-84.59352,34.05425],[-84.59253,34.05915],[-84.5928,34.06151],[-84.58869,34.06716],[-84.58679,34.0706],[-84.58709,34.07409],[-84.58853,34.07661],[-84.51554,34.0753],[-84.51544,34.0787],[-84.51184,34.0786],[-84.51184,34.0752],[-84.41893,34.0733],[-84.41914,34.05517],[-84.41835,34.05291],[-84.41566,34.05084],[-84.41084,34.04928],[-84.4107,34.04589],[-84.41165,34.0431],[-84.41111,34.04207],[-84.40944,34.04082],[-84.40898,34.03874],[-84.40716,34.03632],[-84.40662,34.03625],[-84.40528,34.0373],[-84.40263,34.03567],[-84.40244,34.0348],[-84.40387,34.03345],[-84.40406,34.03246],[-84.40297,34.03209],[-84.40134,34.03002],[-84.40073,34.02659],[-84.40146,34.0255],[-84.40136,34.02433],[-84.39987,34.02443],[-84.39828,34.02228],[-84.39939,34.02089],[-84.39963,34.01904],[-84.39921,34.01757],[-84.39814,34.01658],[-84.39918,34.01541],[-84.40124,34.0144],[-84.40021,34.01324],[-84.40091,34.01275],[-84.40102,34.01175],[-84.3994,34.01026],[-84.40055,34.00952],[-84.40069,34.0081],[-84.39682,34.00812],[-84.39706,34.00605],[-84.39647,34.00513],[-84.39526,34.00457],[-84.39413,34.00212],[-84.3927,34.00083],[-84.39279,33.99985],[-84.38962,33.99851],[-84.38758,33.99695],[-84.38984,33.99553],[-84.38981,33.99509],[-84.38742,33.99394],[-84.38635,33.99264],[-84.38333,33.99281],[-84.37809,33.99048],[-84.3758,33.98846],[-84.37473,33.98609],[-84.37613,33.97656],[-84.37872,33.97266],[-84.38267,33.97223],[-84.38456,33.97059],[-84.38454,33.96908],[-84.38286,33.96623],[-84.38326,33.9634],[-84.39063,33.95597],[-84.39878,33.95056],[-84.40356,33.94527],[-84.41067,33.9391],[-84.41743,33.93231],[-84.42771,33.92685],[-84.43046,33.9249],[-84.4354,33.92338],[-84.43717,33.92223],[-84.43925,33.91736],[-84.44572,33.91271],[-84.44704,33.91107],[-84.44738,33.90807],[-84.44283,33.90171],[-84.44704,33.89983],[-84.4513,33.90224],[-84.45753,33.9027],[-84.4639,33.90538],[-84.46463,33.90651],[-84.46525,33.90974],[-84.46545,33.91445],[-84.46813,33.92261],[-84.46982,33.92528],[-84.47435,33.93017],[-84.48062,33.93333],[-84.48246,33.93532],[-84.48748,33.93628],[-84.49888,33.94577],[-84.49882,33.94875],[-84.4964,33.95806],[-84.49707,33.96036],[-84.49282,33.96434],[-84.48732,33.97159],[-84.48929,33.97303],[-84.49613,33.97646],[-84.49857,33.97619],[-84.49957,33.97529],[-84.50012,33.97328],[-84.50381,33.97211],[-84.50396,33.98336],[-84.50713,33.98355],[-84.51294,33.98514],[-84.50843,33.98711],[-84.50771,33.98855]]]}},{"type":"Feature","properties":{"district":4},"geometry":{"type":"Polygon","coordinates":[[[-84.48646,33.82266],[-84.48023,33.81721],[-84.48333,33.81471],[-84.48553,33.81361],[-84.48903,33.81281],[-84.49534,33.80841],[-84.49974,33.80371],[-84.50264,33.79941],[-84.50774,33.79571],[-84.51074,33.79281],[-84.52344,33.78641],[-84.53124,33.78181],[-84.53343,33.77932],[-84.53804,33.77111],[-84.53994,33.76951],[-84.54444,33.76741],[-84.55264,33.76241],[-84.55924,33.75771],[-84.57344,33.74551],[-84.57544,33.74431],[-84.57814,33.74351],[-84.57814,33.74581],[-84.61014,33.78781],[-84.61274,33.79059],[-84.61734,33.79771],[-84.62005,33.80072],[-84.61999,33.80155],[-84.62088,33.80132],[-84.62217,33.80355],[-84.62207,33.80442],[-84.6227,33.80485],[-84.72414,33.80618],[-84.72398,33.817],[-84.72519,33.817],[-84.72423,33.9036],[-84.70982,33.90322],[-84.7071,33.90248],[-84.69533,33.90293],[-84.66703,33.90223],[-84.66034,33.9003],[-84.65347,33.89754],[-84.64706,33.89656],[-84.62727,33.89993],[-84.6202,33.9024],[-84.60432,33.9054],[-84.6,33.90399],[-84.59946,33.90304],[-84.59924,33.90084],[-84.59814,33.89949],[-84.59032,33.89623],[-84.58324,33.89518],[-84.57908,33.89626],[-84.57466,33.89513],[-84.53865,33.89451],[-84.53015,33.87307],[-84.50595,33.84773],[-84.49499,33.83887],[-84.49395,33.83724],[-84.49189,33.82794],[-84.49061,33.82608],[-84.48646,33.82266]]]}}]}