{"type":"FeatureCollection","features":[{"type":"Feature","geometry":{"type":"Polygon","coordinates":[[[-84.57575,33.7893],[-84.57545,33.78612],[-84.57377,33.78337],[-84.5737,33.78177],[-84.5758,33.77745],[-84.57862,33.7752],[-84.55555,33.7735],[-84.5396,33.7698],[-84.54444,33.76741],[-84.55264,33.76241],[-84.55924,33.75771],[-84.57344,33.74551],[-84.57544,33.74431],[-84.57814,33.74351],[-84.57814,33.74581],[-84.61014,33.78781],[-84.61274,33.79059],[-84.61788,33.79831],[-84.61739,33.7983],[-84.61685,33.79918],[-84.61949,33.801],[-84.61983,33.80104],[-84.61983,33.80047],[-84.61999,33.80155],[-84.61357,33.80428],[-84.60604,33.80557],[-84.59802,33.80812],[-84.59837,33.80198],[-84.59731,33.80042],[-84.59717,33.7983],[-84.59871,33.79745],[-84.59998,33.79575],[-84.59047,33.7942],[-84.58257,33.79149],[-84.57973,33.78986],[-84.57575,33.7893]]]},"properties":{"district":1}},{"type":"Feature","geometry":{"type":"Polygon","coordinates":[[[-84.5763,33.81851],[-84.5715,33.81787],[-84.56392,33.81544],[-84.55822,33.81214],[-84.55434,33.81196],[-84.54745,33.81301],[-84.53998,33.81315],[-84.53582,33.81109],[-84.52798,33.80516],[-84.52193,33.80359],[-84.5168,33.80091],[-84.51799,33.79915],[-84.51882,33.79878],[-84.51894,33.79594],[-84.53397,33.79648],[-84.53448,33.79486],[-84.53849,33.79006],[-84.54066,33.79051],[-84.54533,33.79044],[-84.54877,33.78885],[-84.5516,33.79072],[-84.55699,33.7918],[-84.5602,33.79338],[-84.5674,33.80169],[-84.56891,33.79869],[-84.57504,33.79254],[-84.57575,33.7893],[-84.57973,33.78986],[-84.58257,33.79149],[-84.59047,33.7942],[-84.59998,33.79575],[-84.59871,33.79745],[-84.59717,33.7983],[-84.59708,33.79902],[-84.59731,33.80042],[-84.59837,33.80198],[-84.59777,33.81528],[-84.59454,33.81545],[-84.58319,33.81889],[-84.5763,33.81851]]]},"properties":{"district":3}},{"type":"Feature","geometry":{"type":"Polygon","coordinates":[[[-84.5168,33.80091],[-84.51289,33.79924],[-84.51055,33.79697],[-84.50792,33.79554],[-84.51074,33.79281],[-84.52344,33.78641],[-84.53124,33.78181],[-84.53343,33.77932],[-84.53804,33.77111],[-84.5396,33.7698],[-84.55555,33.7735],[-84.57862,33.7752],[-84.5758,33.77745],[-84.5737,33.78177],[-84.57377,33.78337],[-84.57535,33.78589],[-84.5757,33.78738],[-84.57526,33.79211],[-84.56891,33.79869],[-84.5674,33.80169],[-84.5602,33.79338],[-84.55699,33.7918],[-84.5516,33.79072],[-84.54877,33.78885],[-84.54533,33.79044],[-84.54066,33.79051],[-84.53849,33.79006],[-84.53448,33.79486],[-84.53397,33.79648],[-84.51894,33.79594],[-84.51882,33.79878],[-84.51799,33.79915],[-84.5168,33.80091]]]},"properties":{"district":2}},{"type":"Feature","geometry":{"type":"MultiPolygon","coordinates":[[[[-84.59344,33.84732],[-84.59353,33.84518],[-84.58322,33.84523],[-84.58096,33.84247],[-84.57815,33.84037],[-84.57698,33.83884],[-84.57637,33.83703],[-84.5757,33.82789],[-84.57596,33.82519],[-84.57559,33.82258],[-84.5763,33.81851],[-84.58319,33.81889],[-84.59454,33.81545],[-84.59777,33.81528],[-84.59802,33.80812],[-84.60604,33.80557],[-84.61357,33.80428],[-84.62012,33.8015],[-84.6197,33.80416],[-84.62012,33.80612],[-84.61979,33.80967],[-84.62147,33.80989],[-84.62147,33.81109],[-84.61962,33.81099],[-84.61862,33.81482],[-84.61923,33.81144],[-84.61611,33.81139],[-84.61624,33.81194],[-84.60883,33.81189],[-84.60871,33.81249],[-84.61082,33.81239],[-84.61082,33.81555],[-84.60992,33.81615],[-84.60987,33.81731],[-84.60806,33.81749],[-84.60809,33.81693],[-84.60709,33.81692],[-84.6071,33.81747],[-84.60677,33.81741],[-84.60682,33.81667],[-84.60622,33.81648],[-84.60624,33.81726],[-84.60573,33.81709],[-84.60466,33.81904],[-84.60584,33.81904],[-84.60636,33.81753],[-84.60739,33.81832],[-84.60837,33.81768],[-84.60837,33.81865],[-84.60725,33.81866],[-84.60705,33.81911],[-84.60911,33.81916],[-84.60912,33.81762],[-84.61009,33.81751],[-84.60995,33.81991],[-84.6113,33.81993],[-84.6113,33.82045],[-84.60703,33.82004],[-84.60704,33.82066],[-84.60768,33.82113],[-84.6113,33.82089],[-84.61131,33.82165],[-84.61518,33.81877],[-84.61458,33.81829],[-84.61507,33.81752],[-84.61763,33.81696],[-84.61781,33.81964],[-84.61566,33.81955],[-84.61561,33.82108],[-84.6171,33.82165],[-84.61636,33.8234],[-84.61473,33.8234],[-84.61469,33.8238],[-84.61623,33.82379],[-84.61456,33.82729],[-84.61407,33.82715],[-84.61381,33.82802],[-84.61147,33.82798],[-84.61184,33.82839],[-84.61073,33.83067],[-84.61204,33.83144],[-84.61229,33.83093],[-84.6127,33.83117],[-84.61357,33.82945],[-84.61311,33.82929],[-84.61429,33.82806],[-84.61497,33.82788],[-84.61485,33.82867],[-84.61551,33.82897],[-84.617,33.82908],[-84.617,33.82848],[-84.61823,33.8274],[-84.61751,33.82747],[-84.61719,33.82691],[-84.61644,33.8272],[-84.6162,33.82582],[-84.61604,33.82735],[-84.61552,33.82754],[-84.61622,33.825],[-84.61746,33.82498],[-84.6177,33.82445],[-84.62072,33.82443],[-84.62162,33.82444],[-84.62197,33.82505],[-84.6219,33.82444],[-84.62407,33.82439],[-84.62404,33.8263],[-84.62301,33.8263],[-84.62299,33.82683],[-84.62371,33.82709],[-84.6232,33.82773],[-84.62426,33.82809],[-84.62265,33.82853],[-84.62326,33.83149],[-84.62251,33.83166],[-84.62266,33.83246],[-84.6219,33.8328],[-84.62191,33.83341],[-84.6221,33.83403],[-84.62379,33.83385],[-84.6263,33.83884],[-84.62958,33.84752],[-84.62895,33.84873],[-84.62691,33.84894],[-84.62241,33.85208],[-84.62008,33.85093],[-84.61799,33.8481],[-84.61243,33.84928],[-84.60513,33.84863],[-84.59969,33.84755],[-84.59344,33.84732]]],[[[-84.61634,33.82964],[-84.61699,33.82967],[-84.617,33.82917],[-84.61634,33.82917],[-84.61634,33.82964]]],[[[-84.61569,33.82763],[-84.61606,33.82833],[-84.61551,33.82852],[-84.61569,33.82763]]]]},"properties":{"district":5}},{"type":"Feature","geometry":{"type":"Polygon","coordinates":[[[-84.54956,33.84761],[-84.55401,33.85002],[-84.56181,33.8528],[-84.56829,33.85243],[-84.5822,33.84754],[-84.58542,33.84719],[-84.59654,33.84726],[-84.61243,33.84928],[-84.61799,33.8481],[-84.62008,33.85093],[-84.62241,33.85208],[-84.62691,33.84894],[-84.62895,33.84873],[-84.62958,33.84752],[-84.63253,33.85144],[-84.63602,33.85378],[-84.63577,33.85455],[-84.63779,33.85558],[-84.64121,33.85641],[-84.64124,33.86193],[-84.62802,33.86953],[-84.60841,33.8689],[-84.60677,33.86775],[-84.59977,33.86488],[-84.59666,33.86243],[-84.59495,33.86439],[-84.59451,33.86198],[-84.58757,33.86424],[-84.5831,33.86428],[-84.57913,33.86543],[-84.57802,33.86527],[-84.57517,33.86369],[-84.57206,33.8636],[-84.56895,33.86456],[-84.56874,33.86026],[-84.5673,33.85657],[-84.56357,33.85627],[-84.55963,33.85415],[-84.55695,33.85434],[-84.55627,33.8535],[-84.55447,33.85438],[-84.55255,33.85273],[-84.5526,33.85202],[-84.55383,33.85204],[-84.55384,33.85032],[-84.54967,33.84806],[-84.54956,33.84761]]]},"properties":{"district":6}},{"type":"Feature","geometry":{"type":"MultiPolygon","coordinates":[[[[-84.54956,33.84761],[-84.54637,33.84585],[-84.54202,33.84588],[-84.54197,33.84508],[-84.54328,33.84292],[-84.53913,33.84221],[-84.53948,33.84111],[-84.53883,33.8411],[-84.53655,33.8427],[-84.53479,33.84265],[-84.53443,33.84401],[-84.53366,33.84476],[-84.53275,33.84456],[-84.53242,33.84332],[-84.53339,33.84268],[-84.53293,33.8424],[-84.53229,33.84291],[-84.53236,33.84203],[-84.5334,33.84235],[-84.53273,33.84131],[-84.53399,33.8424],[-84.53449,33.84175],[-84.53539,33.84206],[-84.53494,33.84133],[-84.53556,33.84096],[-84.53603,33.84199],[-84.53662,33.84166],[-84.53626,33.84072],[-84.53671,33.84161],[-84.53754,33.84115],[-84.53742,33.84035],[-84.53828,33.83905],[-84.53705,33.83946],[-84.53686,33.83909],[-84.53991,33.83739],[-84.5375,33.83541],[-84.53792,33.83461],[-84.54144,33.8349],[-84.5414,33.83398],[-84.53974,33.83346],[-84.53974,33.83245],[-84.54097,33.83175],[-84.54102,33.82981],[-84.54018,33.83059],[-84.53684,33.83046],[-84.53696,33.82586],[-84.53222,33.82585],[-84.53226,33.82156],[-84.53152,33.82131],[-84.53179,33.81929],[-84.53247,33.81892],[-84.53249,33.81823],[-84.53339,33.81812],[-84.53376,33.81876],[-84.53355,33.81808],[-84.53484,33.81725],[-84.53522,33.81606],[-84.53678,33.81567],[-84.53701,33.81702],[-84.53701,33.81518],[-84.53574,33.81508],[-84.53464,33.81585],[-84.5337,33.81489],[-84.53433,33.81411],[-84.53301,33.81277],[-84.53269,33.81277],[-84.53263,33.81474],[-84.53053,33.81471],[-84.53049,33.81656],[-84.52789,33.81723],[-84.5283,33.81824],[-84.52786,33.82051],[-84.52992,33.82284],[-84.52909,33.82386],[-84.52819,33.82349],[-84.52828,33.82178],[-84.52721,33.82179],[-84.52701,33.82462],[-84.52648,33.82501],[-84.52647,33.82428],[-84.52547,33.82457],[-84.52535,33.82177],[-84.52381,33.82177],[-84.52325,33.823],[-84.5235,33.8236],[-84.52154,33.82358],[-84.52131,33.82614],[-84.52101,33.8258],[-84.52001,33.82617],[-84.51691,33.82446],[-84.51673,33.82176],[-84.51748,33.82095],[-84.51806,33.82096],[-84.51824,33.8203],[-84.51374,33.82163],[-84.51144,33.82169],[-84.51071,33.82107],[-84.5098,33.82115],[-84.50977,33.82055],[-84.51067,33.8205],[-84.51068,33.82004],[-84.50777,33.81806],[-84.50732,33.81806],[-84.50678,33.81911],[-84.50712,33.81977],[-84.50654,33.82104],[-84.50676,33.82159],[-84.50274,33.82061],[-84.50521,33.82224],[-84.50368,33.82395],[-84.50059,33.82392],[-84.49933,33.82247],[-84.49797,33.82209],[-84.50017,33.81708],[-84.49956,33.81661],[-84.5003,33.81683],[-84.50074,33.816],[-84.50639,33.81651],[-84.50638,33.8135],[-84.50373,33.81253],[-84.50409,33.81208],[-84.50188,33.81194],[-84.50194,33.81039],[-84.50563,33.81027],[-84.50368,33.80925],[-84.50362,33.80849],[-84.50433,33.80816],[-84.5057,33.80889],[-84.50605,33.80849],[-84.50779,33.80881],[-84.50715,33.8093],[-84.50709,33.81],[-84.50984,33.80999],[-84.50975,33.80853],[-84.51038,33.80854],[-84.51005,33.8082],[-84.51107,33.80708],[-84.51172,33.80711],[-84.51,33.80601],[-84.50909,33.80671],[-84.50943,33.80729],[-84.5081,33.80841],[-84.50737,33.80817],[-84.50856,33.8071],[-84.50791,33.80678],[-84.5092,33.80572],[-84.50985,33.80607],[-84.51094,33.80401],[-84.51059,33.80356],[-84.51108,33.80385],[-84.51219,33.80305],[-84.51278,33.80359],[-84.51566,33.8037],[-84.517,33.80482],[-84.51845,33.80387],[-84.51887,33.80201],[-84.51835,33.80258],[-84.51665,33.80162],[-84.51655,33.80094],[-84.5147,33.80023],[-84.51451,33.80194],[-84.51571,33.80203],[-84.51569,33.80257],[-84.51299,33.80242],[-84.51329,33.80191],[-84.51164,33.80038],[-84.51236,33.79981],[-84.51363,33.80074],[-84.51391,33.79987],[-84.50792,33.79554],[-84.51055,33.79697],[-84.51315,33.7994],[-84.51794,33.80133],[-84.52137,33.80334],[-84.52798,33.80516],[-84.53582,33.81109],[-84.53998,33.81315],[-84.54745,33.81301],[-84.55434,33.81196],[-84.55822,33.81214],[-84.56392,33.81544],[-84.5715,33.81787],[-84.57631,33.81842],[-84.57559,33.82258],[-84.57596,33.82519],[-84.5757,33.82789],[-84.57637,33.83703],[-84.57698,33.83884],[-84.57815,33.84037],[-84.58096,33.84247],[-84.58322,33.84523],[-84.59353,33.84518],[-84.59344,33.84732],[-84.58315,33.84734],[-84.56829,33.85243],[-84.5635,33.8528],[-84.56009,33.85247],[-84.55285,33.84952],[-84.54956,33.84761]]],[[[-84.53654,33.83247],[-84.53798,33.83289],[-84.53708,33.83379],[-84.53643,33.83346],[-84.53654,33.83247]]]]},"properties":{"district":4}}]}