{"type":"FeatureCollection","features":[{"type":"Feature","properties":{"ward":1},"geometry":{"type":"Polygon","coordinates":[[[-84.52799,33.95081],[-84.53429,33.95059],[-84.53433,33.9493],[-84.53741,33.94983],[-84.53745,33.94782],[-84.53848,33.94784],[-84.53848,33.94872],[-84.54163,33.94876],[-84.54155,33.94789],[-84.54492,33.94789],[-84.5449,33.94853],[-84.54891,33.94844],[-84.54596,33.94338],[-84.55151,33.94364],[-84.55232,33.94025],[-84.55368,33.93833],[-84.55195,33.93752],[-84.55162,33.93805],[-84.54639,33.93804],[-84.54607,33.93735],[-84.54605,33.93795],[-84.54589,33.93759],[-84.54554,33.93792],[-84.54542,33.93743],[-84.54294,33.93813],[-84.54132,33.93581],[-84.53964,33.93621],[-84.53965,33.93777],[-84.535,33.93777],[-84.53506,33.93684],[-84.53065,33.93572],[-84.53111,33.93623],[-84.531,33.93783],[-84.5223,33.93773],[-84.52249,33.93173],[-84.52315,33.93142],[-84.52124,33.92853],[-84.51205,33.92852],[-84.50871,33.92633],[-84.50792,33.92482],[-84.51044,33.92529],[-84.50996,33.92202],[-84.51147,33.92084],[-84.50969,33.92069],[-84.50809,33.92122],[-84.50664,33.92443],[-84.50535,33.92234],[-84.50497,33.92248],[-84.50533,33.92306],[-84.50267,33.92335],[-84.50266,33.92427],[-84.502,33.92427],[-84.502,33.92348],[-84.50134,33.92342],[-84.50134,33.92427],[-84.50081,33.92427],[-84.50079,33.92518],[-84.50494,33.9263],[-84.50495,33.92669],[-84.50683,33.92679],[-84.50663,33.93051],[-84.50267,33.93053],[-84.50267,33.92785],[-84.50134,33.92782],[-84.50134,33.92672],[-84.50056,33.9267],[-84.50063,33.92519],[-84.498,33.92648],[-84.49622,33.92565],[-84.49628,33.92265],[-84.49203,33.92265],[-84.49217,33.92606],[-84.49323,33.92769],[-84.49799,33.93176],[-84.5029,33.93402],[-84.50465,33.93618],[-84.50717,33.93804],[-84.50782,33.93943],[-84.5105,33.93953],[-84.51576,33.94168],[-84.51918,33.94806],[-84.52417,33.94755],[-84.52523,33.94594],[-84.52382,33.94547],[-84.52386,33.94486],[-84.52609,33.94252],[-84.52619,33.941],[-84.5285,33.94167],[-84.52709,33.94321],[-84.52666,33.94582],[-84.52756,33.94623],[-84.52722,33.94722],[-84.52764,33.94877],[-84.52711,33.94952],[-84.52799,33.95081]]]}},{"type":"Feature","properties":{"ward":2},"geometry":{"type":"MultiPolygon","coordinates":[[[[-84.56699,33.9356],[-84.56675,33.93776],[-84.56614,33.93874],[-84.5627,33.93871],[-84.56386,33.94173],[-84.56618,33.94391],[-84.56604,33.94458],[-84.56729,33.94453],[-84.56863,33.94387],[-84.56859,33.94334],[-84.56989,33.94294],[-84.56971,33.94459],[-84.57253,33.94374],[-84.57481,33.94376],[-84.57482,33.94245],[-84.57704,33.94178],[-84.57853,33.93967],[-84.58097,33.93819],[-84.58065,33.93755],[-84.58221,33.93677],[-84.58437,33.93654],[-84.58576,33.93741],[-84.58661,33.93711],[-84.58638,33.93577],[-84.58732,33.93523],[-84.58718,33.93366],[-84.58591,33.93362],[-84.5857,33.93249],[-84.58656,33.9322],[-84.58734,33.93015],[-84.58597,33.92935],[-84.58592,33.9275],[-84.58366,33.92747],[-84.58371,33.92379],[-84.57932,33.92417],[-84.57929,33.92234],[-84.58015,33.92199],[-84.57971,33.92155],[-84.58147,33.92159],[-84.58153,33.92116],[-84.58037,33.92021],[-84.58163,33.91926],[-84.58437,33.92052],[-84.58479,33.91904],[-84.58372,33.91891],[-84.58401,33.9185],[-84.58348,33.91825],[-84.58246,33.91901],[-84.58218,33.91652],[-84.57945,33.91641],[-84.57946,33.91469],[-84.57586,33.91508],[-84.57524,33.91324],[-84.57288,33.9132],[-84.57267,33.91527],[-84.57556,33.91534],[-84.57568,33.91579],[-84.57702,33.91589],[-84.57638,33.91626],[-84.57664,33.91708],[-84.57518,33.91709],[-84.57517,33.91667],[-84.57046,33.91666],[-84.57051,33.91515],[-84.56976,33.91515],[-84.56982,33.91349],[-84.57057,33.91347],[-84.57059,33.91264],[-84.56925,33.91262],[-84.56945,33.91131],[-84.56831,33.91135],[-84.56813,33.91059],[-84.56656,33.91195],[-84.56558,33.91187],[-84.56313,33.91456],[-84.56201,33.91406],[-84.56199,33.91325],[-84.55852,33.91321],[-84.557,33.91296],[-84.55678,33.9124],[-84.55619,33.91296],[-84.55738,33.91441],[-84.55576,33.91458],[-84.55662,33.91591],[-84.55639,33.91632],[-84.56009,33.91639],[-84.56282,33.91488],[-84.56424,33.91497],[-84.56726,33.91628],[-84.56703,33.92337],[-84.56902,33.92813],[-84.56566,33.93026],[-84.56625,33.93146],[-84.57026,33.93068],[-84.57075,33.93229],[-84.56672,33.93319],[-84.56699,33.9356]],[[-84.58075,33.92746],[-84.57647,33.92743],[-84.576,33.9256],[-84.57531,33.9249],[-84.57565,33.92463],[-84.57496,33.92404],[-84.57647,33.92297],[-84.57589,33.92236],[-84.5767,33.92188],[-84.57746,33.92268],[-84.57678,33.92316],[-84.57871,33.92492],[-84.57833,33.92557],[-84.57895,33.92622],[-84.57847,33.92651],[-84.57909,33.92717],[-84.58014,33.92666],[-84.58093,33.92682],[-84.58075,33.92744],[-84.58136,33.92746],[-84.58075,33.92746]],[[-84.57348,33.92275],[-84.57289,33.92304],[-84.57172,33.92192],[-84.57169,33.92131],[-84.57428,33.92128],[-84.57425,33.92004],[-84.57179,33.92001],[-84.5718,33.91797],[-84.57392,33.91824],[-84.57445,33.91997],[-84.57516,33.91997],[-84.57517,33.92247],[-84.57348,33.92275]]],[[[-84.5888,33.93197],[-84.58879,33.93214],[-84.58887,33.93202],[-84.5888,33.93197]]]]}},{"type":"Feature","properties":{"ward":2},"geometry":{"type":"Polygon","coordinates":[[[-84.59681,33.93846],[-84.59251,33.93842],[-84.59256,33.93293],[-84.58887,33.93149],[-84.58879,33.93214],[-84.58806,33.93213],[-84.58857,33.93365],[-84.58759,33.93432],[-84.58819,33.93522],[-84.58791,33.93696],[-84.58828,33.93798],[-84.58721,33.93818],[-84.58623,33.93725],[-84.58704,33.93823],[-84.58127,33.93868],[-84.57903,33.93988],[-84.57678,33.9422],[-84.57779,33.94464],[-84.57653,33.94202],[-84.57482,33.94245],[-84.57481,33.94376],[-84.57253,33.94374],[-84.56964,33.94458],[-84.56901,33.94728],[-84.56934,33.95071],[-84.57024,33.95187],[-84.57455,33.95193],[-84.57484,33.94762],[-84.57722,33.94509],[-84.57844,33.94451],[-84.58054,33.94464],[-84.58326,33.94878],[-84.58508,33.95008],[-84.59377,33.94622],[-84.59669,33.9456],[-84.59681,33.93846]]]}},{"type":"Feature","properties":{"ward":3},"geometry":{"type":"Polygon","coordinates":[[[-84.56566,33.95884],[-84.56565,33.95938],[-84.57182,33.95951],[-84.57184,33.95881],[-84.57251,33.9588],[-84.57255,33.95576],[-84.57652,33.95561],[-84.58189,33.95401],[-84.58285,33.95312],[-84.58288,33.95112],[-84.58509,33.95012],[-84.58326,33.94878],[-84.58054,33.94464],[-84.57851,33.9445],[-84.57722,33.94509],[-84.57487,33.94755],[-84.57455,33.95193],[-84.57024,33.95187],[-84.56933,33.95068],[-84.56901,33.94746],[-84.56989,33.94294],[-84.56859,33.94334],[-84.56863,33.94387],[-84.56729,33.94453],[-84.56604,33.94458],[-84.56618,33.94391],[-84.56386,33.94173],[-84.5627,33.93871],[-84.56614,33.93874],[-84.56687,33.93704],[-84.56672,33.93319],[-84.57075,33.93229],[-84.57026,33.93068],[-84.56625,33.93146],[-84.56566,33.93026],[-84.55606,33.93599],[-84.55295,33.93918],[-84.55123,33.94442],[-84.55419,33.94471],[-84.55411,33.94543],[-84.5554,33.94536],[-84.55564,33.94623],[-84.55551,33.94729],[-84.55036,33.94728],[-84.55195,33.95125],[-84.55242,33.9554],[-84.54905,33.95533],[-84.54907,33.95637],[-84.54636,33.95636],[-84.54441,33.95889],[-84.54915,33.95886],[-84.55156,33.95739],[-84.55223,33.95801],[-84.56,33.95759],[-84.56003,33.95548],[-84.56571,33.95566],[-84.56566,33.95884]]]}},{"type":"Feature","properties":{"ward":3},"geometry":{"type":"MultiPolygon","coordinates":[[[[-84.55545,33.93122],[-84.55546,33.93223],[-84.55666,33.9321],[-84.55664,33.9296],[-84.55735,33.9296],[-84.55739,33.92627],[-84.55697,33.92626],[-84.55744,33.92414],[-84.5568,33.9239],[-84.55643,33.92498],[-84.55498,33.92518],[-84.55493,33.92699],[-84.55433,33.92699],[-84.55494,33.92726],[-84.55545,33.93122]]],[[[-84.55642,33.91633],[-84.5551,33.91575],[-84.55318,33.91583],[-84.55315,33.91734],[-84.55621,33.91768],[-84.55583,33.91778],[-84.55612,33.91828],[-84.55545,33.91843],[-84.55566,33.91896],[-84.55629,33.91881],[-84.55644,33.91934],[-84.55697,33.9193],[-84.55708,33.92032],[-84.55807,33.92097],[-84.55684,33.92198],[-84.55685,33.9235],[-84.56051,33.92352],[-84.56061,33.92617],[-84.56025,33.92651],[-84.56065,33.92647],[-84.56086,33.92722],[-84.55848,33.92725],[-84.55957,33.93094],[-84.55735,33.93099],[-84.55735,33.93261],[-84.55556,33.93286],[-84.55569,33.93373],[-84.55485,33.93382],[-84.55508,33.93455],[-84.55452,33.93501],[-84.55493,33.93581],[-84.5543,33.93547],[-84.55357,33.93364],[-84.55295,33.93369],[-84.55288,33.93662],[-84.55248,33.93655],[-84.55195,33.93752],[-84.55368,33.93833],[-84.55606,33.93599],[-84.56902,33.92813],[-84.56703,33.92337],[-84.56726,33.91628],[-84.56424,33.91497],[-84.56282,33.91488],[-84.56009,33.91639],[-84.55642,33.91633]],[[-84.56608,33.91658],[-84.56627,33.92019],[-84.56197,33.9202],[-84.562,33.9166],[-84.56608,33.91658]]]]}},{"type":"Feature","properties":{"ward":4},"geometry":{"type":"Polygon","coordinates":[[[-84.56886,33.97836],[-84.56952,33.9789],[-84.56989,33.97056],[-84.57899,33.97056],[-84.57894,33.95949],[-84.58287,33.95932],[-84.58254,33.95665],[-84.57989,33.95463],[-84.57533,33.95581],[-84.57255,33.95576],[-84.57251,33.9588],[-84.57184,33.95881],[-84.57149,33.95952],[-84.56565,33.95938],[-84.56571,33.95566],[-84.56003,33.95548],[-84.56,33.95759],[-84.55223,33.95801],[-84.55156,33.95739],[-84.55133,33.95764],[-84.55341,33.96024],[-84.55881,33.96534],[-84.55934,33.96758],[-84.55837,33.97042],[-84.56204,33.97039],[-84.56315,33.96977],[-84.56754,33.97628],[-84.56655,33.97644],[-84.56706,33.97706],[-84.56651,33.97719],[-84.5668,33.97791],[-84.5686,33.97787],[-84.56886,33.97836]]]}},{"type":"Feature","properties":{"ward":4},"geometry":{"type":"MultiPolygon","coordinates":[[[[-84.60017,33.94659],[-84.60011,33.95321],[-84.60326,33.95328],[-84.60335,33.94762],[-84.60096,33.94761],[-84.60078,33.94646],[-84.6025,33.94657],[-84.60335,33.94725],[-84.60337,33.94596],[-84.60017,33.94594],[-84.60017,33.94659]]],[[[-84.58254,33.95664],[-84.58443,33.95946],[-84.58771,33.959],[-84.59158,33.95712],[-84.59166,33.95309],[-84.59387,33.95308],[-84.59383,33.94635],[-84.59671,33.9456],[-84.59377,33.94622],[-84.58288,33.95112],[-84.58265,33.95347],[-84.57989,33.95463],[-84.58254,33.95664]]],[[[-84.59425,33.96837],[-84.59476,33.96821],[-84.59472,33.96736],[-84.5952,33.96736],[-84.5952,33.96793],[-84.59573,33.96665],[-84.59656,33.96605],[-84.59653,33.96794],[-84.59773,33.96794],[-84.598,33.96547],[-84.60065,33.96594],[-84.60139,33.96484],[-84.59963,33.9648],[-84.59959,33.96511],[-84.59779,33.96464],[-84.59779,33.96371],[-84.59902,33.96379],[-84.59903,33.96475],[-84.59946,33.96478],[-84.59937,33.96302],[-84.60002,33.96306],[-84.60002,33.96054],[-84.59547,33.96054],[-84.59536,33.96348],[-84.59649,33.96359],[-84.59657,33.96588],[-84.59522,33.96585],[-84.59524,33.96369],[-84.59389,33.96354],[-84.59396,33.96501],[-84.59309,33.96712],[-84.5943,33.96736],[-84.59425,33.96837]]],[[[-84.58692,33.97565],[-84.58683,33.97798],[-84.58871,33.97803],[-84.59072,33.97695],[-84.59214,33.97514],[-84.59503,33.97513],[-84.59696,33.97377],[-84.59718,33.97521],[-84.59859,33.97522],[-84.59742,33.97366],[-84.59542,33.97484],[-84.59427,33.97297],[-84.5928,33.97341],[-84.59196,33.97121],[-84.59129,33.97126],[-84.58834,33.97378],[-84.58694,33.97506],[-84.58692,33.97565]]],[[[-84.59133,33.98296],[-84.59918,33.98275],[-84.59797,33.98051],[-84.59464,33.98131],[-84.59133,33.98296]]],[[[-84.61123,33.98781],[-84.61189,33.98853],[-84.6139,33.98681],[-84.61672,33.98566],[-84.61707,33.9759],[-84.61273,33.97547],[-84.61276,33.9682],[-84.60856,33.96818],[-84.60836,33.96079],[-84.6051,33.96078],[-84.60497,33.96413],[-84.60416,33.968],[-84.60106,33.97159],[-84.60138,33.97526],[-84.5997,33.97681],[-84.59968,33.97798],[-84.60335,33.97648],[-84.60342,33.97891],[-84.59965,33.97949],[-84.59962,33.98017],[-84.60234,33.98017],[-84.60419,33.98082],[-84.60352,33.97952],[-84.60379,33.97904],[-84.60908,33.98204],[-84.6073,33.98346],[-84.61123,33.98781]]]]}},{"type":"Feature","properties":{"ward":4},"geometry":{"type":"Polygon","coordinates":[[[-84.55934,33.96736],[-84.55833,33.96462],[-84.5537,33.96055],[-84.55133,33.95764],[-84.54897,33.95889],[-84.54799,33.96362],[-84.53915,33.96362],[-84.53938,33.96123],[-84.53693,33.96118],[-84.53689,33.96483],[-84.53548,33.96484],[-84.53578,33.96607],[-84.53509,33.9666],[-84.53645,33.96782],[-84.53759,33.96695],[-84.54204,33.97052],[-84.54333,33.96966],[-84.5479,33.96972],[-84.54796,33.97245],[-84.55082,33.97188],[-84.55052,33.97035],[-84.55282,33.97039],[-84.55282,33.97094],[-84.55207,33.97107],[-84.55192,33.97266],[-84.55428,33.97245],[-84.55443,33.97334],[-84.55563,33.974],[-84.55626,33.97309],[-84.5566,33.97019],[-84.55845,33.97037],[-84.55934,33.96736]]]}},{"type":"Feature","properties":{"ward":5},"geometry":{"type":"Polygon","coordinates":[[[-84.5006,33.9658],[-84.50251,33.96658],[-84.50931,33.96531],[-84.51392,33.96231],[-84.51719,33.9622],[-84.52807,33.96026],[-84.52729,33.95951],[-84.52901,33.95878],[-84.53219,33.95887],[-84.53261,33.95947],[-84.5341,33.95878],[-84.53695,33.95874],[-84.53693,33.96118],[-84.53938,33.96123],[-84.53915,33.96362],[-84.54799,33.96362],[-84.54897,33.95889],[-84.54441,33.95889],[-84.54443,33.95843],[-84.54489,33.9584],[-84.54636,33.95636],[-84.54907,33.95637],[-84.54905,33.95533],[-84.55242,33.9554],[-84.5519,33.95104],[-84.55036,33.94728],[-84.55551,33.94729],[-84.55557,33.94568],[-84.55411,33.94543],[-84.55419,33.94471],[-84.55123,33.94442],[-84.55151,33.94364],[-84.54596,33.94338],[-84.54891,33.94844],[-84.5449,33.94853],[-84.54492,33.94789],[-84.54155,33.94789],[-84.54163,33.94876],[-84.53848,33.94872],[-84.53848,33.94784],[-84.53745,33.94782],[-84.53741,33.94983],[-84.53433,33.9493],[-84.53426,33.9506],[-84.5252,33.95101],[-84.51082,33.95074],[-84.50847,33.95115],[-84.50611,33.95257],[-84.49633,33.96111],[-84.49479,33.95962],[-84.49403,33.95979],[-84.49261,33.95864],[-84.49229,33.96194],[-84.49265,33.9622],[-84.49067,33.96518],[-84.49203,33.9652],[-84.49295,33.96413],[-84.49535,33.96411],[-84.49535,33.9648],[-84.49654,33.96494],[-84.49642,33.96548],[-84.49694,33.96554],[-84.4986,33.9637],[-84.49793,33.96284],[-84.5006,33.9658]],[[-84.51279,33.96228],[-84.50943,33.9647],[-84.50331,33.96572],[-84.50102,33.96523],[-84.49923,33.96303],[-84.50064,33.96245],[-84.50158,33.96361],[-84.50402,33.9636],[-84.50389,33.95866],[-84.50789,33.95612],[-84.50405,33.95456],[-84.50546,33.95333],[-84.50668,33.95423],[-84.50722,33.95377],[-84.50672,33.9534],[-84.50717,33.95282],[-84.50651,33.95238],[-84.50759,33.95168],[-84.50898,33.95277],[-84.51105,33.95312],[-84.51102,33.95472],[-84.51187,33.95471],[-84.51189,33.95397],[-84.51444,33.95253],[-84.51531,33.95394],[-84.51555,33.95469],[-84.51459,33.95469],[-84.51426,33.95421],[-84.51399,33.95469],[-84.51255,33.95469],[-84.51262,33.95831],[-84.51214,33.95859],[-84.51281,33.95907],[-84.51234,33.95984],[-84.51282,33.96001],[-84.51276,33.9614],[-84.51405,33.96141],[-84.51385,33.9621],[-84.51279,33.96228]]]}},{"type":"Feature","properties":{"ward":5},"geometry":{"type":"MultiPolygon","coordinates":[[[[-84.56539,33.99208],[-84.56917,33.99226],[-84.56925,33.99184],[-84.5714,33.99186],[-84.5714,33.99104],[-84.57379,33.99103],[-84.57405,33.98867],[-84.57082,33.98713],[-84.57037,33.98779],[-84.57155,33.98868],[-84.5682,33.98867],[-84.56858,33.98765],[-84.56966,33.98815],[-84.57007,33.98747],[-84.56971,33.9873],[-84.57092,33.98582],[-84.57223,33.98583],[-84.57227,33.98494],[-84.56829,33.9839],[-84.56925,33.98236],[-84.56572,33.98071],[-84.56711,33.97962],[-84.56692,33.97919],[-84.56367,33.97977],[-84.56066,33.97931],[-84.55897,33.97737],[-84.56522,33.97758],[-84.56489,33.97491],[-84.56524,33.97545],[-84.56664,33.97545],[-84.56315,33.96977],[-84.56184,33.97041],[-84.5566,33.97019],[-84.55626,33.97309],[-84.55563,33.974],[-84.55443,33.97334],[-84.55428,33.97245],[-84.55192,33.97266],[-84.55207,33.97107],[-84.55282,33.97094],[-84.55282,33.97039],[-84.55052,33.97035],[-84.55082,33.97188],[-84.54796,33.97245],[-84.5479,33.96972],[-84.54333,33.96966],[-84.54204,33.97052],[-84.53759,33.96695],[-84.53645,33.96782],[-84.53509,33.9666],[-84.53578,33.96607],[-84.53548,33.96484],[-84.53689,33.96483],[-84.53695,33.95874],[-84.5341,33.95878],[-84.53261,33.95947],[-84.53219,33.95887],[-84.52901,33.95878],[-84.52729,33.95951],[-84.5332,33.96503],[-84.53243,33.96578],[-84.53232,33.96778],[-84.53387,33.96736],[-84.53471,33.96813],[-84.53457,33.96874],[-84.53559,33.96916],[-84.53458,33.97068],[-84.53051,33.97281],[-84.54605,33.98837],[-84.54794,33.98952],[-84.54909,33.98832],[-84.54883,33.9879],[-84.54688,33.98781],[-84.54564,33.9867],[-84.54553,33.98256],[-84.55062,33.97811],[-84.55098,33.97753],[-84.55005,33.97713],[-84.55047,33.97596],[-84.55101,33.9771],[-84.5519,33.97654],[-84.55455,33.97646],[-84.5561,33.97793],[-84.55834,33.97877],[-84.55887,33.97943],[-84.55894,33.98062],[-84.55799,33.9802],[-84.55785,33.98061],[-84.5588,33.98101],[-84.55818,33.98226],[-84.55666,33.98159],[-84.55632,33.98215],[-84.556,33.98186],[-84.55608,33.98299],[-84.55747,33.98313],[-84.55627,33.98504],[-84.55581,33.98492],[-84.55581,33.98315],[-84.55193,33.98358],[-84.55195,33.9856],[-84.55121,33.9856],[-84.55103,33.98612],[-84.55295,33.98644],[-84.55238,33.98732],[-84.55369,33.98797],[-84.55496,33.98668],[-84.55567,33.98719],[-84.55529,33.98814],[-84.55806,33.98807],[-84.55845,33.98759],[-84.55939,33.98823],[-84.55942,33.98761],[-84.5602,33.98756],[-84.56079,33.98767],[-84.56077,33.98838],[-84.56263,33.98837],[-84.56315,33.98894],[-84.56195,33.98967],[-84.56269,33.99074],[-84.5637,33.99172],[-84.56418,33.99101],[-84.56532,33.99142],[-84.56539,33.99208]]],[[[-84.55194,33.98982],[-84.55152,33.98956],[-84.55057,33.99086],[-84.55318,33.9922],[-84.5536,33.99141],[-84.55287,33.99104],[-84.55345,33.99025],[-84.55194,33.98982]]]]}},{"type":"Feature","properties":{"ward":6},"geometry":{"type":"Polygon","coordinates":[[[-84.51473,33.96832],[-84.51474,33.96958],[-84.5157,33.97047],[-84.51478,33.9717],[-84.51478,33.97265],[-84.51881,33.97287],[-84.51886,33.97233],[-84.52144,33.97211],[-84.52145,33.97138],[-84.52189,33.97139],[-84.52339,33.97326],[-84.5242,33.97346],[-84.52418,33.97427],[-84.52465,33.97427],[-84.52332,33.97533],[-84.52303,33.9764],[-84.52365,33.97649],[-84.5246,33.97643],[-84.52449,33.97584],[-84.52773,33.97424],[-84.52791,33.97364],[-84.5323,33.9721],[-84.53481,33.9705],[-84.53559,33.96916],[-84.53457,33.96874],[-84.53471,33.96813],[-84.53387,33.96736],[-84.53232,33.96778],[-84.53243,33.96578],[-84.5332,33.96503],[-84.52787,33.96027],[-84.51719,33.9622],[-84.51392,33.96231],[-84.51405,33.96337],[-84.51546,33.9658],[-84.51481,33.96597],[-84.51507,33.967],[-84.51473,33.96832]],[[-84.5243,33.97586],[-84.52434,33.9764],[-84.52307,33.97635],[-84.52319,33.9759],[-84.5243,33.97586]]]}},{"type":"Feature","properties":{"ward":6},"geometry":{"type":"MultiPolygon","coordinates":[[[[-84.54784,34.00609],[-84.54619,34.00603],[-84.54662,34.00703],[-84.54846,34.00645],[-84.55291,34.00663],[-84.55357,34.00613],[-84.55138,34.00631],[-84.55149,34.00301],[-84.55198,34.00398],[-84.55276,34.00429],[-84.553,34.00519],[-84.55424,34.0056],[-84.55296,34.00503],[-84.55254,34.00409],[-84.55294,34.00326],[-84.55231,34.00306],[-84.55234,34.00207],[-84.55343,34.00268],[-84.55398,34.00194],[-84.5554,34.00328],[-84.55634,34.00283],[-84.55871,33.9998],[-84.55849,33.99901],[-84.55926,33.99823],[-84.55932,33.99722],[-84.5578,33.99554],[-84.5529,33.99273],[-84.55318,33.9922],[-84.55057,33.99086],[-84.55037,33.99116],[-84.54766,33.9901],[-84.54794,33.98952],[-84.54419,33.98673],[-84.53051,33.97281],[-84.52791,33.97364],[-84.52771,33.97455],[-84.52762,33.97729],[-84.53002,33.97735],[-84.52992,33.98042],[-84.52533,33.98036],[-84.52536,33.98231],[-84.5229,33.98018],[-84.5231,33.97864],[-84.5253,33.97878],[-84.52528,33.97734],[-84.52268,33.97725],[-84.52068,33.9802],[-84.5174,33.98017],[-84.51736,33.98094],[-84.51813,33.98123],[-84.51757,33.98157],[-84.51738,33.98017],[-84.51666,33.98017],[-84.51664,33.97897],[-84.51493,33.97708],[-84.5149,33.97547],[-84.51592,33.97434],[-84.51558,33.97362],[-84.51586,33.97288],[-84.51474,33.97257],[-84.51478,33.9717],[-84.5157,33.97047],[-84.51469,33.96938],[-84.51481,33.96597],[-84.51268,33.96698],[-84.51247,33.96901],[-84.51156,33.96898],[-84.51168,33.96713],[-84.51048,33.96727],[-84.50941,33.96776],[-84.50934,33.97175],[-84.5079,33.97173],[-84.50793,33.97695],[-84.51278,33.97705],[-84.51263,33.98009],[-84.50795,33.9799],[-84.50799,33.98384],[-84.50736,33.98369],[-84.50731,33.98403],[-84.50637,33.98411],[-84.50644,33.98361],[-84.50189,33.98337],[-84.49828,33.98379],[-84.49807,33.99092],[-84.50399,33.99096],[-84.50396,33.98963],[-84.50603,33.98961],[-84.50606,33.99091],[-84.50795,33.99092],[-84.50793,33.99543],[-84.50836,33.99567],[-84.50535,33.99827],[-84.50775,33.99859],[-84.50774,33.99936],[-84.51017,33.99942],[-84.50909,33.99766],[-84.50736,33.99735],[-84.50921,33.99614],[-84.51195,33.99765],[-84.51229,33.99443],[-84.51467,33.9945],[-84.51478,33.98921],[-84.51645,33.98923],[-84.51644,33.98732],[-84.51893,33.98734],[-84.51895,33.99115],[-84.52146,33.99116],[-84.52149,33.99488],[-84.51794,33.99484],[-84.51785,33.99601],[-84.52,33.99604],[-84.52,33.99538],[-84.52457,33.99567],[-84.5237,33.99729],[-84.52402,33.99742],[-84.52385,33.9985],[-84.52574,33.9985],[-84.52864,33.99719],[-84.52903,33.99793],[-84.52881,33.99875],[-84.53597,33.99861],[-84.53603,33.99704],[-84.5475,33.99731],[-84.54603,34.00026],[-84.54717,34.00055],[-84.54704,34.00569],[-84.5481,34.00572],[-84.5482,34.0061],[-84.54784,34.00609]],[[-84.53405,33.99485],[-84.53244,33.99567],[-84.53133,33.99439],[-84.53043,33.99508],[-84.53006,33.99478],[-84.53153,33.99328],[-84.53027,33.99369],[-84.53091,33.99304],[-84.52929,33.99222],[-84.52936,33.99143],[-84.53017,33.99158],[-84.53053,33.99064],[-84.53267,33.99166],[-84.53297,33.99145],[-84.53446,33.99294],[-84.53409,33.9943],[-84.53309,33.99479],[-84.53405,33.99485]],[[-84.53453,33.9887],[-84.53493,33.98818],[-84.53445,33.98784],[-84.53495,33.98735],[-84.53455,33.98704],[-84.53501,33.98657],[-84.53597,33.98729],[-84.53547,33.98658],[-84.53626,33.98593],[-84.53782,33.98708],[-84.53686,33.98794],[-84.53751,33.98843],[-84.53695,33.98879],[-84.53734,33.98888],[-84.5366,33.99145],[-84.5351,33.99144],[-84.53174,33.98935],[-84.53205,33.98897],[-84.53405,33.98919],[-84.53453,33.9887]],[[-84.52872,33.9894],[-84.52767,33.9904],[-84.52517,33.98799],[-84.52519,33.98721],[-84.52952,33.98724],[-84.52983,33.98641],[-84.53072,33.98727],[-84.53052,33.98792],[-84.52872,33.9894]],[[-84.51417,33.98733],[-84.51296,33.98719],[-84.51293,33.9849],[-84.51453,33.98404],[-84.51392,33.98521],[-84.51417,33.98733]],[[-84.50896,33.9872],[-84.50837,33.98769],[-84.5062,33.98776],[-84.5064,33.9872],[-84.50896,33.9872]]],[[[-84.5279,33.9846],[-84.52787,33.98458],[-84.52791,33.98461],[-84.5279,33.9846]],[[-84.53879,33.98852],[-84.53903,33.98773],[-84.54288,33.98782],[-84.54252,33.98869],[-84.54336,33.99067],[-84.54277,33.99085],[-84.54314,33.9916],[-84.54231,33.99156],[-84.54106,33.98909],[-84.54031,33.98986],[-84.53967,33.98952],[-84.5391,33.98989],[-84.53932,33.99154],[-84.53775,33.99145],[-84.53879,33.98852]],[[-84.54697,33.99316],[-84.5473,33.99166],[-84.55046,33.99239],[-84.54985,33.99347],[-84.549,33.99312],[-84.54864,33.99369],[-84.54697,33.99316]]]]}},{"type":"Feature","properties":{"ward":7},"geometry":{"type":"MultiPolygon","coordinates":[[[[-84.49591,33.95041],[-84.49551,33.9504],[-84.49549,33.95144],[-84.49732,33.95202],[-84.49532,33.96008],[-84.49633,33.96111],[-84.50683,33.95199],[-84.50887,33.95102],[-84.52799,33.95081],[-84.52711,33.94952],[-84.52764,33.94877],[-84.52722,33.94722],[-84.52756,33.94623],[-84.52666,33.94582],[-84.52709,33.94321],[-84.5285,33.94167],[-84.52619,33.941],[-84.52609,33.94252],[-84.52386,33.94486],[-84.52382,33.94547],[-84.52523,33.94594],[-84.52417,33.94755],[-84.51918,33.94806],[-84.51576,33.94168],[-84.5105,33.93953],[-84.50782,33.93943],[-84.50717,33.93804],[-84.50465,33.93618],[-84.5029,33.93402],[-84.49799,33.93176],[-84.49314,33.9276],[-84.49213,33.92585],[-84.49203,33.92265],[-84.50076,33.92233],[-84.50077,33.9217],[-84.50207,33.92048],[-84.5021,33.91933],[-84.50276,33.91998],[-84.50228,33.92159],[-84.5037,33.92101],[-84.50412,33.92141],[-84.5031,33.92158],[-84.50307,33.9223],[-84.50535,33.92234],[-84.49639,33.91237],[-84.49651,33.90858],[-84.50084,33.9086],[-84.50091,33.90158],[-84.49663,33.89775],[-84.48953,33.90193],[-84.48811,33.89979],[-84.48893,33.89924],[-84.48784,33.89782],[-84.48785,33.89676],[-84.48371,33.89939],[-84.48021,33.89562],[-84.47734,33.89748],[-84.47884,33.89921],[-84.47738,33.90012],[-84.47737,33.90094],[-84.47777,33.90096],[-84.47754,33.90208],[-84.47804,33.90258],[-84.47738,33.90375],[-84.47812,33.90435],[-84.47928,33.90416],[-84.48009,33.90322],[-84.4796,33.90216],[-84.48029,33.9017],[-84.48103,33.90249],[-84.4817,33.90213],[-84.48211,33.90266],[-84.48183,33.90315],[-84.48233,33.90333],[-84.48342,33.90348],[-84.48495,33.90251],[-84.48541,33.90298],[-84.48642,33.90234],[-84.48741,33.9034],[-84.48519,33.90363],[-84.48615,33.90476],[-84.48447,33.90575],[-84.4834,33.90584],[-84.48332,33.90906],[-84.48399,33.90885],[-84.48505,33.90621],[-84.48754,33.90818],[-84.48682,33.90896],[-84.48687,33.91034],[-84.48786,33.91101],[-84.48721,33.91203],[-84.48733,33.91723],[-84.48327,33.91718],[-84.48327,33.91572],[-84.48043,33.91562],[-84.47859,33.91214],[-84.47792,33.91226],[-84.47855,33.91293],[-84.4775,33.91346],[-84.47754,33.91425],[-84.48092,33.91701],[-84.48118,33.91832],[-84.48228,33.91901],[-84.48176,33.92],[-84.47986,33.92176],[-84.47822,33.9225],[-84.47875,33.91913],[-84.47434,33.91907],[-84.47446,33.92252],[-84.47505,33.92252],[-84.47514,33.92295],[-84.47447,33.92307],[-84.4745,33.92434],[-84.47354,33.92452],[-84.47319,33.92285],[-84.47254,33.92308],[-84.47254,33.92247],[-84.46991,33.9225],[-84.46998,33.92126],[-84.4686,33.92125],[-84.46857,33.92184],[-84.46794,33.92174],[-84.46943,33.92192],[-84.46942,33.92249],[-84.46829,33.9225],[-84.4696,33.92395],[-84.46973,33.92345],[-84.4705,33.92344],[-84.47029,33.92472],[-84.46963,33.92479],[-84.47115,33.92642],[-84.47586,33.92642],[-84.4754,33.92534],[-84.47675,33.92396],[-84.47665,33.92313],[-84.47741,33.92327],[-84.47756,33.92432],[-84.47863,33.92435],[-84.47862,33.92644],[-84.47627,33.92642],[-84.47582,33.9275],[-84.4759,33.92861],[-84.47861,33.92717],[-84.47862,33.93038],[-84.47562,33.93009],[-84.47561,33.93074],[-84.481,33.93335],[-84.48175,33.92941],[-84.48733,33.92945],[-84.48738,33.92793],[-84.49114,33.93267],[-84.49614,33.93633],[-84.49614,33.93743],[-84.49794,33.93744],[-84.4995,33.93839],[-84.49938,33.93914],[-84.49988,33.93914],[-84.49988,33.93959],[-84.49938,33.93981],[-84.49987,33.93981],[-84.49987,33.94056],[-84.49924,33.94072],[-84.49898,33.94199],[-84.49953,33.94201],[-84.49953,33.94247],[-84.49897,33.94246],[-84.49856,33.9444],[-84.49742,33.94425],[-84.49693,33.94468],[-84.49851,33.94568],[-84.49839,33.94908],[-84.49785,33.95047],[-84.49591,33.95041]],[[-84.49764,33.95872],[-84.49721,33.9591],[-84.49727,33.95605],[-84.49743,33.95532],[-84.49827,33.95535],[-84.49868,33.95652],[-84.49824,33.9569],[-84.4992,33.95813],[-84.49858,33.95791],[-84.49764,33.95872]],[[-84.50104,33.9536],[-84.50101,33.95445],[-84.49987,33.95444],[-84.50058,33.95099],[-84.49849,33.95049],[-84.49893,33.94929],[-84.50046,33.94918],[-84.49988,33.94894],[-84.50046,33.94853],[-84.49988,33.94851],[-84.49987,33.94763],[-84.5006,33.9474],[-84.50109,33.94773],[-84.50065,33.94815],[-84.5014,33.94858],[-84.50157,33.94804],[-84.50241,33.94868],[-84.50433,33.94799],[-84.505,33.94816],[-84.50499,33.94893],[-84.50558,33.9491],[-84.50576,33.9487],[-84.5069,33.94905],[-84.50696,33.94952],[-84.50714,33.94912],[-84.50881,33.94948],[-84.50834,33.94991],[-84.50675,33.94998],[-84.50733,33.9509],[-84.50616,33.95093],[-84.50619,33.95134],[-84.50428,33.95153],[-84.50434,33.95058],[-84.50403,33.95057],[-84.50399,33.95159],[-84.50311,33.95156],[-84.50338,33.95319],[-84.50222,33.95357],[-84.50222,33.95302],[-84.5014,33.95299],[-84.50104,33.9536]],[[-84.50056,33.94034],[-84.50004,33.94049],[-84.50004,33.94026],[-84.50056,33.94034]],[[-84.49843,33.92147],[-84.49629,33.92162],[-84.49631,33.91922],[-84.50065,33.91931],[-84.50062,33.921],[-84.49845,33.921],[-84.49843,33.92147]],[[-84.47888,33.89957],[-84.47917,33.89996],[-84.47826,33.90129],[-84.47807,33.90008],[-84.47888,33.89957]]],[[[-84.47446,33.92926],[-84.47385,33.92946],[-84.47449,33.93012],[-84.47446,33.92926]]],[[[-84.49776,33.94123],[-84.49777,33.94178],[-84.4983,33.94178],[-84.4983,33.94113],[-84.49776,33.94123]]]]}}]}