{"type":"FeatureCollection","features":[{"type":"Feature","geometry":{"type":"Polygon","coordinates":[[[-84.72438,33.88154],[-84.72421,33.88521],[-84.71997,33.88512],[-84.71997,33.88863],[-84.70658,33.88863],[-84.70539,33.88668],[-84.70678,33.88672],[-84.70678,33.88499],[-84.70881,33.885],[-84.70893,33.88304],[-84.70731,33.88253],[-84.70678,33.88492],[-84.70704,33.88221],[-84.70754,33.88151],[-84.69806,33.88094],[-84.69801,33.8789],[-84.69973,33.87884],[-84.69978,33.87746],[-84.69641,33.87737],[-84.69676,33.879],[-84.69617,33.87901],[-84.69636,33.88414],[-84.69586,33.88412],[-84.69585,33.8846],[-84.69355,33.88456],[-84.69353,33.88627],[-84.69264,33.88628],[-84.69263,33.88831],[-84.68796,33.88817],[-84.68797,33.88723],[-84.68923,33.88725],[-84.68936,33.88076],[-84.69228,33.87909],[-84.69166,33.87711],[-84.68954,33.87708],[-84.68964,33.87349],[-84.68595,33.87344],[-84.68605,33.87266],[-84.68492,33.87262],[-84.68513,33.87046],[-84.68875,33.87051],[-84.68875,33.86998],[-84.69073,33.86988],[-84.69584,33.86995],[-84.69537,33.86855],[-84.6901,33.86711],[-84.6968,33.86877],[-84.697,33.86132],[-84.69785,33.85392],[-84.69669,33.85104],[-84.68684,33.84215],[-84.68802,33.842],[-84.692,33.84329],[-84.69198,33.84456],[-84.69408,33.8446],[-84.69399,33.84274],[-84.6984,33.84285],[-84.69837,33.84109],[-84.69945,33.84109],[-84.70007,33.84272],[-84.70081,33.84275],[-84.7005,33.84462],[-84.69987,33.84478],[-84.70071,33.84598],[-84.6993,33.84822],[-84.69827,33.84817],[-84.69822,33.85187],[-84.70077,33.85193],[-84.70071,33.85376],[-84.70233,33.85307],[-84.70258,33.85566],[-84.70028,33.85559],[-84.70028,33.85675],[-84.69832,33.8567],[-84.69836,33.85539],[-84.69909,33.8555],[-84.69923,33.85418],[-84.69825,33.85416],[-84.69824,33.8567],[-84.69746,33.86036],[-84.69805,33.86057],[-84.69805,33.86301],[-84.69767,33.86302],[-84.69748,33.86538],[-84.70695,33.86863],[-84.70658,33.86715],[-84.70484,33.86471],[-84.70941,33.86478],[-84.70922,33.86712],[-84.71032,33.86716],[-84.71031,33.86566],[-84.71128,33.86501],[-84.71271,33.86499],[-84.71262,33.8629],[-84.71163,33.86289],[-84.71169,33.86133],[-84.71599,33.86166],[-84.71814,33.86096],[-84.71838,33.86696],[-84.71611,33.86693],[-84.71614,33.86941],[-84.71142,33.87006],[-84.71382,33.87085],[-84.7138,33.87237],[-84.71504,33.87381],[-84.71594,33.87386],[-84.71598,33.87103],[-84.72003,33.87069],[-84.72012,33.87269],[-84.72192,33.87254],[-84.72317,33.87183],[-84.72367,33.87046],[-84.72416,33.87042],[-84.72417,33.87105],[-84.72454,33.87105],[-84.72434,33.87921],[-84.7182,33.87789],[-84.72002,33.87985],[-84.72438,33.88154]],[[-84.71541,33.88192],[-84.71464,33.87947],[-84.71392,33.87968],[-84.714,33.88101],[-84.71449,33.88129],[-84.71374,33.8815],[-84.71201,33.87897],[-84.71196,33.87803],[-84.7096,33.88152],[-84.71266,33.88341],[-84.71155,33.88412],[-84.71243,33.8842],[-84.71138,33.88525],[-84.71824,33.88513],[-84.71487,33.88304],[-84.71428,33.88231],[-84.71541,33.88192]],[[-84.71936,33.88034],[-84.71829,33.87998],[-84.71722,33.88119],[-84.71795,33.88164],[-84.7181,33.88105],[-84.71936,33.88034]],[[-84.69305,33.87905],[-84.69148,33.87975],[-84.6914,33.88082],[-84.69294,33.88081],[-84.69305,33.87905]]]},"properties":{"ward":1}},{"type":"Feature","geometry":{"type":"MultiPolygon","coordinates":[[[[-84.67323,33.87419],[-84.6735,33.8747],[-84.67217,33.87512],[-84.67219,33.87456],[-84.67323,33.87419]]],[[[-84.66492,33.8494],[-84.66783,33.84941],[-84.66801,33.84992],[-84.6661,33.84992],[-84.6661,33.85051],[-84.66492,33.85053],[-84.66492,33.8494]]],[[[-84.67214,33.83127],[-84.67514,33.8328],[-84.67957,33.83598],[-84.68108,33.83724],[-84.68044,33.83724],[-84.68545,33.8416],[-84.68542,33.84209],[-84.68684,33.84214],[-84.69649,33.85082],[-84.6978,33.85319],[-84.6968,33.86876],[-84.68619,33.86601],[-84.69023,33.86732],[-84.68884,33.86761],[-84.68438,33.86614],[-84.68232,33.86613],[-84.68232,33.86893],[-84.68382,33.86893],[-84.68402,33.86989],[-84.68509,33.86969],[-84.68496,33.87236],[-84.68293,33.87234],[-84.68291,33.8715],[-84.68087,33.8715],[-84.68086,33.87382],[-84.67971,33.87325],[-84.67971,33.87451],[-84.67797,33.8735],[-84.6787,33.87396],[-84.67863,33.87448],[-84.68078,33.87564],[-84.68084,33.87511],[-84.68331,33.87527],[-84.68355,33.87708],[-84.68413,33.87709],[-84.68361,33.87877],[-84.68082,33.87872],[-84.68083,33.87706],[-84.67721,33.87703],[-84.67718,33.88395],[-84.67625,33.88393],[-84.67625,33.88286],[-84.67245,33.88284],[-84.67202,33.88001],[-84.67123,33.88001],[-84.67126,33.87709],[-84.67192,33.87708],[-84.67198,33.87524],[-84.67464,33.87433],[-84.67618,33.87324],[-84.67556,33.86707],[-84.67571,33.86289],[-84.66675,33.86064],[-84.67124,33.85894],[-84.66755,33.85885],[-84.66388,33.85767],[-84.66349,33.85718],[-84.66357,33.85538],[-84.66262,33.85511],[-84.66311,33.85508],[-84.66295,33.8536],[-84.66184,33.85356],[-84.66264,33.85214],[-84.66305,33.85222],[-84.66305,33.85329],[-84.66779,33.85329],[-84.66778,33.85175],[-84.66852,33.85152],[-84.66516,33.85151],[-84.66516,33.85096],[-84.66815,33.85119],[-84.66838,33.85067],[-84.66914,33.85197],[-84.67209,33.85035],[-84.67211,33.84941],[-84.668,33.84953],[-84.66782,33.84907],[-84.66955,33.84906],[-84.6693,33.8486],[-84.66863,33.84766],[-84.66721,33.84778],[-84.66783,33.84757],[-84.66752,33.84712],[-84.66684,33.84723],[-84.66643,33.84666],[-84.6669,33.84653],[-84.66609,33.84619],[-84.66765,33.84584],[-84.66756,33.84441],[-84.66809,33.84441],[-84.66811,33.84497],[-84.67358,33.84507],[-84.67358,33.84587],[-84.6744,33.84591],[-84.67429,33.84536],[-84.67682,33.84537],[-84.67618,33.84439],[-84.68098,33.84436],[-84.68101,33.84076],[-84.67628,33.84096],[-84.67642,33.83724],[-84.67182,33.83722],[-84.6702,33.83362],[-84.67209,33.83365],[-84.67214,33.83127]]],[[[-84.69525,33.85178],[-84.69527,33.85239],[-84.69305,33.85253],[-84.69077,33.85597],[-84.69039,33.85729],[-84.69389,33.85738],[-84.6939,33.85536],[-84.69579,33.85517],[-84.69683,33.8518],[-84.69525,33.85178]]],[[[-84.69746,33.85325],[-84.69646,33.85547],[-84.69647,33.85921],[-84.69693,33.8592],[-84.69746,33.85325]]],[[[-84.68539,33.86501],[-84.68542,33.86547],[-84.68626,33.86574],[-84.68601,33.86503],[-84.68539,33.86501]]],[[[-84.67785,33.87336],[-84.67822,33.87353],[-84.67813,33.87348],[-84.67785,33.87336]]]]},"properties":{"ward":3}},{"type":"Feature","geometry":{"type":"Polygon","coordinates":[[[-84.64409,33.87555],[-84.64239,33.8747],[-84.64362,33.87451],[-84.64424,33.87327],[-84.64547,33.87326],[-84.64562,33.86951],[-84.64617,33.86951],[-84.64724,33.86711],[-84.64882,33.86583],[-84.64837,33.86566],[-84.64854,33.8649],[-84.648,33.86434],[-84.64589,33.86425],[-84.64432,33.86139],[-84.64395,33.86158],[-84.64314,33.86075],[-84.64441,33.85994],[-84.6442,33.8586],[-84.64553,33.8586],[-84.64553,33.85931],[-84.64878,33.85828],[-84.65277,33.85922],[-84.65445,33.85892],[-84.65456,33.85701],[-84.65854,33.85765],[-84.65851,33.85509],[-84.66321,33.85517],[-84.66388,33.85768],[-84.66755,33.85886],[-84.67124,33.85895],[-84.66675,33.86065],[-84.67571,33.8629],[-84.67556,33.86708],[-84.67618,33.87324],[-84.67419,33.87453],[-84.67418,33.87333],[-84.66767,33.87339],[-84.66762,33.87516],[-84.67055,33.87532],[-84.6698,33.87824],[-84.66904,33.87824],[-84.66905,33.8788],[-84.66757,33.87879],[-84.66744,33.88059],[-84.66283,33.88062],[-84.66279,33.8787],[-84.66047,33.87624],[-84.65879,33.87683],[-84.655,33.87687],[-84.655,33.87724],[-84.65311,33.87765],[-84.65307,33.8769],[-84.64852,33.87655],[-84.64833,33.87473],[-84.64543,33.87462],[-84.6451,33.87595],[-84.64409,33.87555]],[[-84.65856,33.8746],[-84.65787,33.87453],[-84.65823,33.87531],[-84.65799,33.87669],[-84.65858,33.87669],[-84.65856,33.8746]],[[-84.65174,33.87669],[-84.65194,33.87478],[-84.65141,33.87409],[-84.64953,33.87404],[-84.6495,33.87454],[-84.65021,33.87454],[-84.65019,33.87649],[-84.65174,33.87669]],[[-84.65739,33.8735],[-84.65778,33.87426],[-84.65834,33.8741],[-84.65754,33.87264],[-84.65698,33.87279],[-84.65739,33.8735]],[[-84.6582,33.87351],[-84.65887,33.87588],[-84.65996,33.87549],[-84.65849,33.87307],[-84.65806,33.87305],[-84.65855,33.8725],[-84.65817,33.87202],[-84.65749,33.87231],[-84.65463,33.86756],[-84.65497,33.86661],[-84.65606,33.86601],[-84.65548,33.86593],[-84.65233,33.86288],[-84.65169,33.86471],[-84.64994,33.86532],[-84.64998,33.86594],[-84.65307,33.86596],[-84.65484,33.86962],[-84.65598,33.87074],[-84.65686,33.87258],[-84.65751,33.87234],[-84.6582,33.87351]],[[-84.65203,33.86098],[-84.65239,33.85958],[-84.65041,33.85899],[-84.64974,33.8608],[-84.65211,33.86154],[-84.65203,33.86098]],[[-84.64911,33.85909],[-84.64912,33.85858],[-84.64802,33.85858],[-84.64826,33.85958],[-84.64911,33.85945],[-84.64911,33.85909]],[[-84.65643,33.85985],[-84.65644,33.86095],[-84.65709,33.86092],[-84.65709,33.85983],[-84.65643,33.85985]]]},"properties":{"ward":2}},{"type":"Feature","geometry":{"type":"Polygon","coordinates":[[[-84.64103,33.876],[-84.64143,33.87568],[-84.64142,33.87687],[-84.63591,33.87682],[-84.63482,33.87122],[-84.63595,33.87139],[-84.6384,33.87294],[-84.63845,33.87416],[-84.63908,33.87512],[-84.63805,33.8751],[-84.63804,33.87553],[-84.64103,33.876]]]},"properties":{"ward":2}}]}