{"type":"FeatureCollection","features":[{"type":"Feature","geometry":{"type":"Polygon","coordinates":[[[-84.4986,33.89579],[-84.50043,33.89325],[-84.50001,33.89272],[-84.49681,33.89234],[-84.49657,33.89532],[-84.49535,33.89509],[-84.49461,33.89439],[-84.49336,33.89474],[-84.49255,33.89395],[-84.49154,33.89417],[-84.49194,33.89497],[-84.48996,33.89581],[-84.48781,33.89476],[-84.48638,33.8947],[-84.48763,33.89404],[-84.48731,33.89403],[-84.48752,33.88344],[-84.48621,33.88332],[-84.48624,33.88242],[-84.49287,33.87664],[-84.49509,33.87706],[-84.49891,33.87599],[-84.50125,33.87608],[-84.50605,33.8784],[-84.50902,33.88039],[-84.50754,33.88121],[-84.50812,33.88219],[-84.50813,33.88372],[-84.50372,33.8837],[-84.5037,33.88418],[-84.50298,33.88369],[-84.50298,33.88409],[-84.50195,33.88435],[-84.50219,33.88466],[-84.50176,33.8851],[-84.50247,33.88548],[-84.50113,33.88555],[-84.50113,33.88587],[-84.50215,33.88694],[-84.5012,33.88693],[-84.50118,33.88764],[-84.50542,33.88782],[-84.50539,33.89062],[-84.50973,33.89064],[-84.50969,33.8944],[-84.50328,33.89466],[-84.4967,33.89777],[-84.4986,33.89579]],[[-84.50348,33.89441],[-84.50533,33.8942],[-84.50117,33.89411],[-84.50057,33.89344],[-84.49919,33.89551],[-84.50348,33.89441]]]},"properties":{"ward":2}},{"type":"Feature","geometry":{"type":"Polygon","coordinates":[[[-84.47207,33.88679],[-84.4712,33.8862],[-84.47275,33.88482],[-84.47165,33.88368],[-84.47244,33.88241],[-84.47317,33.88261],[-84.4738,33.88013],[-84.47521,33.88186],[-84.47587,33.88186],[-84.47608,33.88025],[-84.4777,33.88],[-84.4816,33.87811],[-84.48176,33.87633],[-84.48726,33.87641],[-84.48826,33.87562],[-84.48826,33.87094],[-84.48955,33.87093],[-84.49183,33.8693],[-84.49137,33.86805],[-84.49392,33.86787],[-84.49523,33.87025],[-84.49742,33.87194],[-84.50723,33.87683],[-84.51266,33.88025],[-84.50902,33.88039],[-84.50245,33.87648],[-84.49937,33.87595],[-84.49509,33.87706],[-84.49287,33.87664],[-84.48635,33.88229],[-84.48621,33.88332],[-84.48752,33.88337],[-84.48731,33.89403],[-84.48763,33.89404],[-84.48638,33.8947],[-84.48781,33.89476],[-84.48996,33.89581],[-84.49194,33.89497],[-84.49154,33.89417],[-84.49255,33.89395],[-84.49336,33.89474],[-84.49461,33.89439],[-84.49535,33.89509],[-84.49655,33.89533],[-84.49678,33.8937],[-84.4967,33.89777],[-84.48959,33.90188],[-84.48804,33.89979],[-84.48891,33.89921],[-84.48781,33.8976],[-84.48786,33.89648],[-84.48358,33.89925],[-84.48262,33.89821],[-84.48315,33.89788],[-84.48236,33.89793],[-84.47841,33.89354],[-84.47568,33.89386],[-84.47497,33.89303],[-84.47601,33.89248],[-84.47514,33.89144],[-84.47389,33.89299],[-84.47054,33.89243],[-84.47054,33.89026],[-84.47319,33.89029],[-84.47375,33.88962],[-84.47338,33.88918],[-84.47414,33.88898],[-84.47207,33.88679]],[[-84.49274,33.87671],[-84.49062,33.87623],[-84.48877,33.87686],[-84.49085,33.8786],[-84.49274,33.87671]]]},"properties":{"ward":1}},{"type":"Feature","geometry":{"type":"Polygon","coordinates":[[[-84.49468,33.86663],[-84.49451,33.8663],[-84.49519,33.86642],[-84.49618,33.86561],[-84.49595,33.86489],[-84.49536,33.86573],[-84.49505,33.86539],[-84.49644,33.86396],[-84.4964,33.86325],[-84.49739,33.86319],[-84.49788,33.86208],[-84.49731,33.8609],[-84.4994,33.85862],[-84.49656,33.85799],[-84.4966,33.85685],[-84.49849,33.85734],[-84.49891,33.85678],[-84.49738,33.85674],[-84.49739,33.85495],[-84.49642,33.85488],[-84.49665,33.85425],[-84.49828,33.85416],[-84.50079,33.85275],[-84.50181,33.85178],[-84.50182,33.85042],[-84.50252,33.85115],[-84.50365,33.85036],[-84.50475,33.85147],[-84.50376,33.85146],[-84.50372,33.85278],[-84.50422,33.85313],[-84.50163,33.85331],[-84.50158,33.85504],[-84.50602,33.85507],[-84.50596,33.85741],[-84.50528,33.85784],[-84.50593,33.85855],[-84.50595,33.85782],[-84.50702,33.85777],[-84.50715,33.85718],[-84.50668,33.85695],[-84.50756,33.85699],[-84.50958,33.85542],[-84.51006,33.85448],[-84.51038,33.85466],[-84.5104,33.85288],[-84.50649,33.8488],[-84.50605,33.84873],[-84.50604,33.8491],[-84.50505,33.84857],[-84.50556,33.84789],[-84.5037,33.84631],[-84.50311,33.84734],[-84.50224,33.84704],[-84.50182,33.8467],[-84.50181,33.84546],[-84.50061,33.84538],[-84.50018,33.84458],[-84.50074,33.84372],[-84.5052,33.84113],[-84.50553,33.84135],[-84.5046,33.84192],[-84.50665,33.8432],[-84.5038,33.84433],[-84.50502,33.84544],[-84.5044,33.8461],[-84.50492,33.8465],[-84.50615,33.84626],[-84.50614,33.84691],[-84.50557,33.84705],[-84.51046,33.85207],[-84.51132,33.8516],[-84.51206,33.85237],[-84.51113,33.85276],[-84.51254,33.85423],[-84.51379,33.85394],[-84.51387,33.85313],[-84.51586,33.85288],[-84.51662,33.85356],[-84.51668,33.85301],[-84.51708,33.85307],[-84.51762,33.85462],[-84.51908,33.85312],[-84.51908,33.85355],[-84.51987,33.85362],[-84.52019,33.85314],[-84.52,33.85369],[-84.52075,33.85403],[-84.52231,33.85412],[-84.52236,33.85362],[-84.52669,33.85391],[-84.52912,33.8554],[-84.52781,33.85712],[-84.52683,33.85731],[-84.52591,33.85633],[-84.52368,33.85702],[-84.52395,33.85745],[-84.52271,33.85855],[-84.52082,33.85896],[-84.519,33.86142],[-84.51644,33.85904],[-84.51622,33.8604],[-84.51869,33.86783],[-84.51869,33.87351],[-84.51967,33.87651],[-84.51668,33.8802],[-84.51266,33.88025],[-84.50723,33.87683],[-84.4988,33.87281],[-84.49585,33.87085],[-84.49469,33.86953],[-84.49385,33.8674],[-84.49468,33.86663]]]},"properties":{"ward":6}},{"type":"Feature","geometry":{"type":"Polygon","coordinates":[[[-84.52434,33.84323],[-84.52133,33.84283],[-84.52129,33.84221],[-84.51451,33.83845],[-84.51144,33.83824],[-84.50858,33.83913],[-84.50638,33.83857],[-84.50711,33.83827],[-84.50677,33.83762],[-84.50509,33.8363],[-84.50633,33.83561],[-84.50538,33.83538],[-84.50498,33.8362],[-84.50542,33.83693],[-84.50435,33.83617],[-84.50258,33.83618],[-84.50376,33.83565],[-84.50331,33.83526],[-84.50238,33.83618],[-84.50147,33.83601],[-84.50201,33.83313],[-84.50297,33.83319],[-84.50296,33.8342],[-84.50374,33.83424],[-84.50317,33.83367],[-84.50386,33.83368],[-84.50402,33.83315],[-84.50295,33.833],[-84.5025,33.83207],[-84.50306,33.83162],[-84.50204,33.83147],[-84.50209,33.8293],[-84.49408,33.82925],[-84.49338,33.83046],[-84.49396,33.83243],[-84.49321,33.83208],[-84.49375,33.83497],[-84.4956,33.83498],[-84.49534,33.83714],[-84.49432,33.83739],[-84.49525,33.8388],[-84.49714,33.83833],[-84.49763,33.83994],[-84.504,33.83867],[-84.50727,33.83932],[-84.5052,33.84113],[-84.50047,33.84393],[-84.49971,33.84335],[-84.49901,33.84356],[-84.49901,33.84423],[-84.4976,33.84422],[-84.4976,33.84311],[-84.49607,33.84309],[-84.4961,33.84157],[-84.49748,33.84153],[-84.49393,33.83805],[-84.49283,33.83365],[-84.49165,33.83388],[-84.49142,33.83307],[-84.48883,33.8331],[-84.48883,33.8324],[-84.49144,33.83255],[-84.49206,33.83127],[-84.48882,33.8311],[-84.48886,33.82967],[-84.49097,33.83042],[-84.49222,33.83035],[-84.49142,33.82786],[-84.48999,33.82637],[-84.49096,33.82448],[-84.4954,33.8199],[-84.49783,33.81507],[-84.49775,33.81189],[-84.49574,33.80859],[-84.5006,33.80357],[-84.50247,33.80019],[-84.50799,33.79574],[-84.50967,33.79658],[-84.51373,33.7999],[-84.51353,33.80067],[-84.51235,33.7998],[-84.51164,33.80038],[-84.51324,33.80186],[-84.51288,33.80241],[-84.5157,33.80257],[-84.51571,33.80203],[-84.51451,33.80194],[-84.51469,33.80033],[-84.51657,33.80104],[-84.51666,33.80163],[-84.51837,33.80259],[-84.51894,33.80213],[-84.51845,33.80387],[-84.517,33.80482],[-84.5162,33.80381],[-84.51278,33.80359],[-84.51214,33.80299],[-84.51103,33.80382],[-84.51059,33.80356],[-84.5109,33.80399],[-84.5099,33.80583],[-84.5092,33.80572],[-84.50791,33.80678],[-84.50849,33.80705],[-84.50733,33.80809],[-84.5081,33.80841],[-84.5094,33.8073],[-84.50918,33.80675],[-84.51,33.80601],[-84.51176,33.80711],[-84.51108,33.80708],[-84.51005,33.8082],[-84.51038,33.80854],[-84.50975,33.80853],[-84.50984,33.80999],[-84.50709,33.81],[-84.50715,33.8093],[-84.50779,33.80881],[-84.50605,33.80849],[-84.5057,33.80889],[-84.50433,33.80816],[-84.50359,33.80854],[-84.50368,33.80925],[-84.50552,33.81022],[-84.50527,33.81055],[-84.50194,33.81039],[-84.50188,33.81194],[-84.50405,33.81207],[-84.50369,33.81253],[-84.50638,33.8135],[-84.50638,33.81644],[-84.50097,33.81588],[-84.50022,33.81681],[-84.49956,33.81661],[-84.50005,33.81701],[-84.49781,33.82227],[-84.49933,33.82247],[-84.50059,33.82392],[-84.5037,33.82395],[-84.50544,33.82229],[-84.50296,33.82073],[-84.50677,33.82164],[-84.50654,33.82104],[-84.50712,33.81977],[-84.50678,33.81911],[-84.50732,33.81806],[-84.50777,33.81806],[-84.51068,33.82004],[-84.51067,33.8205],[-84.50936,33.8205],[-84.50937,33.82115],[-84.51071,33.82114],[-84.51136,33.82171],[-84.51332,33.82178],[-84.51824,33.82039],[-84.51673,33.82176],[-84.51691,33.82446],[-84.52002,33.82617],[-84.52101,33.8258],[-84.52114,33.82618],[-84.52154,33.82358],[-84.5235,33.82359],[-84.52325,33.823],[-84.52381,33.82177],[-84.52535,33.82177],[-84.52547,33.82485],[-84.52629,33.82456],[-84.52651,33.82511],[-84.5271,33.82471],[-84.52721,33.82179],[-84.52828,33.82178],[-84.52819,33.82348],[-84.52909,33.82386],[-84.52992,33.82284],[-84.52786,33.82051],[-84.5283,33.81824],[-84.52789,33.81723],[-84.53049,33.81656],[-84.53053,33.81471],[-84.53263,33.81474],[-84.53269,33.81277],[-84.53433,33.81411],[-84.5337,33.81489],[-84.53464,33.81585],[-84.53574,33.81508],[-84.53701,33.81518],[-84.53701,33.81702],[-84.53678,33.81567],[-84.53522,33.81606],[-84.53484,33.81725],[-84.53355,33.81808],[-84.53376,33.81876],[-84.53339,33.81812],[-84.53249,33.81823],[-84.53247,33.81892],[-84.53175,33.81938],[-84.53152,33.8213],[-84.53226,33.82173],[-84.53222,33.82585],[-84.53695,33.82587],[-84.53684,33.83046],[-84.54025,33.8306],[-84.54102,33.82981],[-84.54096,33.83167],[-84.53974,33.83243],[-84.53974,33.83346],[-84.5414,33.83398],[-84.54144,33.8349],[-84.53793,33.8346],[-84.53746,33.83548],[-84.53986,33.83742],[-84.53688,33.83908],[-84.53711,33.8396],[-84.53845,33.83894],[-84.53746,33.84035],[-84.53755,33.84114],[-84.53682,33.84155],[-84.53623,33.8407],[-84.53654,33.84166],[-84.53595,33.84198],[-84.5356,33.84108],[-84.5349,33.841],[-84.53539,33.84206],[-84.53441,33.8417],[-84.5339,33.84233],[-84.53281,33.84107],[-84.53321,33.84162],[-84.53283,33.84197],[-84.5334,33.84235],[-84.53221,33.84195],[-84.53212,33.84251],[-84.53229,33.84291],[-84.53293,33.8424],[-84.53339,33.84268],[-84.52966,33.84435],[-84.52789,33.84349],[-84.52434,33.84323]],[[-84.5213,33.84205],[-84.52136,33.84095],[-84.51993,33.84094],[-84.51977,33.84122],[-84.5213,33.84205]],[[-84.53462,33.84063],[-84.53462,33.84062],[-84.53461,33.84063],[-84.53462,33.84063]],[[-84.53751,33.83347],[-84.53804,33.8329],[-84.53654,33.83247],[-84.53643,33.83346],[-84.53716,33.83389],[-84.53751,33.83347]]]},"properties":{"ward":7}},{"type":"Feature","geometry":{"type":"MultiPolygon","coordinates":[[[[-84.53499,33.87397],[-84.53485,33.87326],[-84.53729,33.87311],[-84.53774,33.87362],[-84.53646,33.8743],[-84.53667,33.87487],[-84.53487,33.87558],[-84.53428,33.87462],[-84.53499,33.87397]]],[[[-84.51896,33.89887],[-84.51947,33.89792],[-84.51889,33.89793],[-84.51936,33.89767],[-84.51901,33.89697],[-84.52078,33.89726],[-84.5205,33.8967],[-84.51829,33.89697],[-84.51829,33.89765],[-84.50639,33.89695],[-84.50595,33.89463],[-84.50328,33.89466],[-84.50969,33.8944],[-84.50973,33.89064],[-84.5053,33.89055],[-84.50548,33.88642],[-84.50485,33.88617],[-84.50549,33.88596],[-84.50435,33.88573],[-84.50436,33.88529],[-84.50486,33.88529],[-84.50488,33.88401],[-84.50446,33.88365],[-84.50813,33.88372],[-84.50812,33.88219],[-84.50754,33.88121],[-84.50858,33.8805],[-84.51685,33.88013],[-84.51881,33.8771],[-84.51967,33.87651],[-84.51869,33.87351],[-84.51864,33.86756],[-84.51618,33.86023],[-84.51655,33.85885],[-84.52393,33.86656],[-84.52598,33.86522],[-84.52842,33.86457],[-84.52841,33.86657],[-84.52968,33.867],[-84.5302,33.86877],[-84.52985,33.86969],[-84.5281,33.87092],[-84.52947,33.87235],[-84.53142,33.87121],[-84.53484,33.87042],[-84.53355,33.86692],[-84.53785,33.86682],[-84.53771,33.8657],[-84.53839,33.8655],[-84.54062,33.86589],[-84.54277,33.86469],[-84.54641,33.86048],[-84.5532,33.85502],[-84.55635,33.85358],[-84.55695,33.85434],[-84.55893,33.85425],[-84.56016,33.85637],[-84.55967,33.85702],[-84.55781,33.85742],[-84.5558,33.85923],[-84.55077,33.85916],[-84.55077,33.85858],[-84.54976,33.85855],[-84.55042,33.85813],[-84.54994,33.85757],[-84.54922,33.85823],[-84.5495,33.85914],[-84.54857,33.85883],[-84.54755,33.85974],[-84.54936,33.86078],[-84.54938,33.86144],[-84.54587,33.86134],[-84.54437,33.86327],[-84.54482,33.86354],[-84.54443,33.864],[-84.54621,33.86539],[-84.54845,33.86546],[-84.54868,33.86346],[-84.54651,33.86298],[-84.54721,33.86251],[-84.54975,33.86266],[-84.54977,33.86336],[-84.54944,33.86335],[-84.54945,33.86399],[-84.54984,33.864],[-84.54978,33.86632],[-84.54332,33.86623],[-84.543,33.86738],[-84.53945,33.86692],[-84.5364,33.87051],[-84.53812,33.87283],[-84.53707,33.87247],[-84.5356,33.87284],[-84.5356,33.87324],[-84.53326,33.87324],[-84.53284,33.87261],[-84.53065,33.87393],[-84.53261,33.87882],[-84.52941,33.88116],[-84.52647,33.88129],[-84.52644,33.88228],[-84.52594,33.88267],[-84.52677,33.88349],[-84.52648,33.8844],[-84.52723,33.8844],[-84.52675,33.88714],[-84.52711,33.88714],[-84.52737,33.89156],[-84.52122,33.8914],[-84.52269,33.89331],[-84.52277,33.89433],[-84.52465,33.89433],[-84.52446,33.89749],[-84.5211,33.89908],[-84.51896,33.89887]]],[[[-84.54598,33.86117],[-84.54598,33.86117],[-84.54598,33.86117],[-84.54598,33.86117]]],[[[-84.55155,33.85642],[-84.55048,33.85712],[-84.5509,33.85756],[-84.55159,33.85706],[-84.55155,33.85642]]],[[[-84.52165,33.89978],[-84.52137,33.89929],[-84.52232,33.89896],[-84.52259,33.89948],[-84.52165,33.89978]]]]},"properties":{"ward":3}},{"type":"Feature","geometry":{"type":"Polygon","coordinates":[[[-84.52129,33.84221],[-84.51992,33.84169],[-84.51975,33.84198],[-84.52163,33.84291],[-84.5276,33.84343],[-84.52966,33.84435],[-84.53245,33.84342],[-84.53275,33.84456],[-84.53345,33.84491],[-84.53443,33.84401],[-84.53479,33.84266],[-84.53655,33.8427],[-84.53922,33.8411],[-84.53838,33.84357],[-84.53884,33.84366],[-84.53926,33.84221],[-84.54328,33.84292],[-84.54197,33.84508],[-84.54204,33.84612],[-84.54639,33.84622],[-84.55384,33.85032],[-84.55383,33.85204],[-84.5526,33.85202],[-84.55255,33.85273],[-84.55447,33.85434],[-84.55045,33.85702],[-84.54649,33.86041],[-84.54251,33.8649],[-84.54062,33.86589],[-84.54004,33.86553],[-84.53783,33.86565],[-84.53785,33.86682],[-84.53355,33.86692],[-84.53484,33.87042],[-84.53142,33.87121],[-84.52947,33.87235],[-84.5281,33.87092],[-84.52985,33.86969],[-84.5302,33.86877],[-84.52968,33.867],[-84.52841,33.86657],[-84.52842,33.86457],[-84.52598,33.86522],[-84.52393,33.86656],[-84.519,33.86142],[-84.52082,33.85896],[-84.52271,33.85855],[-84.52395,33.85745],[-84.52368,33.85702],[-84.52591,33.85633],[-84.52683,33.85731],[-84.52781,33.85712],[-84.52912,33.8554],[-84.52698,33.854],[-84.52404,33.85367],[-84.5249,33.85236],[-84.52492,33.85198],[-84.52426,33.85197],[-84.52426,33.8514],[-84.5221,33.85164],[-84.52213,33.85099],[-84.52007,33.85084],[-84.52162,33.85097],[-84.52161,33.8504],[-84.52009,33.85044],[-84.52015,33.84987],[-84.52085,33.84957],[-84.5202,33.84959],[-84.52038,33.84864],[-84.52342,33.84864],[-84.52341,33.85112],[-84.52427,33.85112],[-84.52428,33.84894],[-84.52494,33.84862],[-84.52428,33.84861],[-84.52428,33.84805],[-84.52862,33.84791],[-84.52757,33.84657],[-84.52694,33.84708],[-84.52506,33.84709],[-84.52497,33.84567],[-84.52832,33.84562],[-84.52983,33.84475],[-84.52413,33.84468],[-84.52412,33.84549],[-84.52345,33.84558],[-84.52342,33.84803],[-84.52043,33.84803],[-84.52142,33.84677],[-84.52068,33.84598],[-84.522,33.84461],[-84.52064,33.84456],[-84.5207,33.84342],[-84.52138,33.84314],[-84.51918,33.84255],[-84.51914,33.84724],[-84.51705,33.84643],[-84.51705,33.84771],[-84.5162,33.84803],[-84.5169,33.84303],[-84.51773,33.84217],[-84.51495,33.84134],[-84.51482,33.84583],[-84.51221,33.84506],[-84.5131,33.84394],[-84.51227,33.84292],[-84.51059,33.8446],[-84.51058,33.83968],[-84.50858,33.83913],[-84.51144,33.83824],[-84.51417,33.83837],[-84.52129,33.84221]]]},"properties":{"ward":4}},{"type":"Feature","geometry":{"type":"Polygon","coordinates":[[[-84.52534,33.90402],[-84.52203,33.8984],[-84.52446,33.89749],[-84.52465,33.89433],[-84.52277,33.89433],[-84.52269,33.89331],[-84.52119,33.89147],[-84.52737,33.89156],[-84.52711,33.88714],[-84.52675,33.88714],[-84.52723,33.8844],[-84.52648,33.8844],[-84.52677,33.88349],[-84.52594,33.88267],[-84.52644,33.88228],[-84.52647,33.88129],[-84.52941,33.88116],[-84.53261,33.87882],[-84.53065,33.87393],[-84.53284,33.87261],[-84.53337,33.87362],[-84.53308,33.87399],[-84.53428,33.87462],[-84.53487,33.87558],[-84.5361,33.8751],[-84.53714,33.87649],[-84.53671,33.87681],[-84.53808,33.87673],[-84.53817,33.87621],[-84.53967,33.8761],[-84.53894,33.8751],[-84.54038,33.87507],[-84.5404,33.87334],[-84.54505,33.87335],[-84.54511,33.87077],[-84.54818,33.87103],[-84.54919,33.87134],[-84.54908,33.87163],[-84.55362,33.87261],[-84.55377,33.86963],[-84.55576,33.86998],[-84.55534,33.87231],[-84.55434,33.87352],[-84.55351,33.87388],[-84.54891,33.87302],[-84.54676,33.87321],[-84.5449,33.87451],[-84.54492,33.87687],[-84.54296,33.87655],[-84.54204,33.87839],[-84.54288,33.87988],[-84.54492,33.88068],[-84.54479,33.88238],[-84.53952,33.88236],[-84.53912,33.87955],[-84.53602,33.87949],[-84.53602,33.88028],[-84.53646,33.88027],[-84.53646,33.88234],[-84.53814,33.88238],[-84.53894,33.88317],[-84.53957,33.88317],[-84.53902,33.88337],[-84.53936,33.88414],[-84.54043,33.88397],[-84.5403,33.88639],[-84.54094,33.8864],[-84.54095,33.88579],[-84.54475,33.88582],[-84.54473,33.8868],[-84.54533,33.88628],[-84.54621,33.88675],[-84.54659,33.88636],[-84.54502,33.88501],[-84.54506,33.88419],[-84.54634,33.88419],[-84.54633,33.88307],[-84.54742,33.88306],[-84.54833,33.88369],[-84.5483,33.8842],[-84.54896,33.88419],[-84.54892,33.88748],[-84.54845,33.88807],[-84.54588,33.88801],[-84.54568,33.88867],[-84.5447,33.88856],[-84.54465,33.89118],[-84.54588,33.89114],[-84.54469,33.89352],[-84.54226,33.89615],[-84.54162,33.89749],[-84.54526,33.89752],[-84.54548,33.90153],[-84.54977,33.90176],[-84.54949,33.90222],[-84.54826,33.9022],[-84.54805,33.90268],[-84.54628,33.90251],[-84.54628,33.90219],[-84.53906,33.90205],[-84.53993,33.90237],[-84.53992,33.90333],[-84.53758,33.90305],[-84.53759,33.90264],[-84.53852,33.90256],[-84.53854,33.90203],[-84.53744,33.90201],[-84.53696,33.90347],[-84.53558,33.90344],[-84.53563,33.90274],[-84.535,33.90272],[-84.53501,33.90197],[-84.52569,33.90189],[-84.52565,33.90257],[-84.52665,33.90259],[-84.52672,33.90348],[-84.52656,33.90388],[-84.52534,33.90402]],[[-84.54503,33.90081],[-84.54499,33.9008],[-84.54504,33.90097],[-84.54503,33.90081]]]},"properties":{"ward":5}}]}